{"type":"FeatureCollection","features":[{"id":"0","type":"Feature","properties":{},"geometry":{"type":"Polygon","coordinates":[[[13.427473,52.524155],[13.451026,52.52134],[13.451026,52.496901],[13.422067,52.496901],[13.427473,52.524155]]]}},{"id":"1","type":"Feature","properties":{},"geometry":{"type":"Polygon","coordinates":[[[13.37232,52.522237],[13.372635,52.496901],[13.345012,52.496901],[13.345012,52.522898],[13.37232,52.522237]]]}},{"id":"2","type":"Feature","properties":{},"geometry":{"type":"Polygon","coordinates":[[[13.397425,52.521177],[13.401598,52.496901],[13.372635,52.496901],[13.37232,52.522237],[13.375236,52.525021],[13.397425,52.521177]]]}},{"id":"3","type":"Feature","properties":{},"geometry":{"type":"Polygon","coordinates":[[[13.405004,52.528234],[13.402177,52.551353],[13.430267,52.551353],[13.427261,52.524412],[13.405004,52.528234]]]}},{"id":"4","type":"Feature","properties":{},"geometry":{"type":"Polygon","coordinates":[[[13.397425,52.521177],[13.405004,52.528234],[13.427261,52.524412],[13.427473,52.524155],[13.422067,52.496901],[13.401598,52.496901],[13.397425,52.521177]]]}},{"id":"5","type":"Feature","properties":{},"geometry":{"type":"Polygon","coordinates":[[[13.427261,52.524412],[13.430267,52.551353],[13.439088,52.551353],[13.451026,52.551353],[13.451026,52.534786],[13.451026,52.52134],[13.427473,52.524155],[13.427261,52.524412]]]}},{"id":"6","type":"Feature","properties":{},"geometry":{"type":"Polygon","coordinates":[[[13.405004,52.528234],[13.397425,52.521177],[13.375236,52.525021],[13.375196,52.551353],[13.402177,52.551353],[13.405004,52.528234]]]}},{"id":"7","type":"Feature","properties":{},"geometry":{"type":"Polygon","coordinates":[[[13.345012,52.522898],[13.345012,52.551353],[13.375196,52.551353],[13.375236,52.525021],[13.37232,52.522237],[13.345012,52.522898]]]}}]}