{
"type": "FeatureCollection",
"name": "berlin_roads400",
"crs": { "type": "name", "properties": { "name": "urn:ogc:def:crs:OGC:1.3:CRS84" } },
"features": [
{ "type": "Feature", "properties": { "id": "293", "layer": 0 }, "geometry": { "type": "Point", "coordinates": [ 13.389928, 52.535577 ] } },
{ "type": "Feature", "properties": { "id": "306", "layer": 0 }, "geometry": { "type": "Point", "coordinates": [ 13.410512, 52.526913 ] } },
{ "type": "Feature", "properties": { "id": "261", "layer": 0 }, "geometry": { "type": "Point", "coordinates": [ 13.493904, 52.502377 ] } },
{ "type": "Feature", "properties": { "id": "334", "layer": 0 }, "geometry": { "type": "Point", "coordinates": [ 13.437978, 52.522553 ] } },
{ "type": "Feature", "properties": { "id": "137", "layer": 0 }, "geometry": { "type": "Point", "coordinates": [ 13.455829, 52.517082 ] } },
{ "type": "Feature", "properties": { "id": "307", "layer": 0 }, "geometry": { "type": "Point", "coordinates": [ 13.376735, 52.533181 ] } },
{ "type": "Feature", "properties": { "id": "221", "layer": 0 }, "geometry": { "type": "Point", "coordinates": [ 13.4411, 52.54328 ] } },
{ "type": "Feature", "properties": { "id": "381", "layer": 0 }, "geometry": { "type": "Point", "coordinates": [ 13.399105, 52.515704 ] } },
{ "type": "Feature", "properties": { "id": "242", "layer": 0 }, "geometry": { "type": "Point", "coordinates": [ 13.491603, 52.535315 ] } },
{ "type": "Feature", "properties": { "id": "362", "layer": 0 }, "geometry": { "type": "Point", "coordinates": [ 13.406155, 52.508156 ] } },
{ "type": "Feature", "properties": { "id": "202", "layer": 0 }, "geometry": { "type": "Point", "coordinates": [ 13.379798, 52.521427 ] } },
{ "type": "Feature", "properties": { "id": "27", "layer": 0 }, "geometry": { "type": "Point", "coordinates": [ 13.473095, 52.515573 ] } },
{ "type": "Feature", "properties": { "id": "146", "layer": 0 }, "geometry": { "type": "Point", "coordinates": [ 13.412196, 52.50631 ] } },
{ "type": "Feature", "properties": { "id": "307", "layer": 0 }, "geometry": { "type": "Point", "coordinates": [ 13.332676, 52.47743 ] } },
{ "type": "Feature", "properties": { "id": "203", "layer": 0 }, "geometry": { "type": "Point", "coordinates": [ 13.463664, 52.52301 ] } },
{ "type": "Feature", "properties": { "id": "20", "layer": 0 }, "geometry": { "type": "Point", "coordinates": [ 13.416861, 52.511936 ] } },
{ "type": "Feature", "properties": { "id": "175", "layer": 0 }, "geometry": { "type": "Point", "coordinates": [ 13.352728, 52.487472 ] } },
{ "type": "Feature", "properties": { "id": "237", "layer": 0 }, "geometry": { "type": "Point", "coordinates": [ 13.395059, 52.534162 ] } },
{ "type": "Feature", "properties": { "id": "304", "layer": 0 }, "geometry": { "type": "Point", "coordinates": [ 13.452989, 52.528725 ] } },
{ "type": "Feature", "properties": { "id": "347", "layer": 0 }, "geometry": { "type": "Point", "coordinates": [ 13.465301, 52.509916 ] } },
{ "type": "Feature", "properties": { "id": "375", "layer": 0 }, "geometry": { "type": "Point", "coordinates": [ 13.452903, 52.52661 ] } },
{ "type": "Feature", "properties": { "id": "59", "layer": 0 }, "geometry": { "type": "Point", "coordinates": [ 13.475082, 52.524992 ] } },
{ "type": "Feature", "properties": { "id": "55", "layer": 0 }, "geometry": { "type": "Point", "coordinates": [ 13.350957, 52.492792 ] } },
{ "type": "Feature", "properties": { "id": "8", "layer": 0 }, "geometry": { "type": "Point", "coordinates": [ 13.437328, 52.488615 ] } },
{ "type": "Feature", "properties": { "id": "364", "layer": 0 }, "geometry": { "type": "Point", "coordinates": [ 13.342965, 52.535931 ] } },
{ "type": "Feature", "properties": { "id": "254", "layer": 0 }, "geometry": { "type": "Point", "coordinates": [ 13.373764, 52.542733 ] } },
{ "type": "Feature", "properties": { "id": "214", "layer": 0 }, "geometry": { "type": "Point", "coordinates": [ 13.44911, 52.513037 ] } },
{ "type": "Feature", "properties": { "id": "198", "layer": 0 }, "geometry": { "type": "Point", "coordinates": [ 13.404501, 52.512259 ] } },
{ "type": "Feature", "properties": { "id": "229", "layer": 0 }, "geometry": { "type": "Point", "coordinates": [ 13.387611, 52.545774 ] } },
{ "type": "Feature", "properties": { "id": "33", "layer": 0 }, "geometry": { "type": "Point", "coordinates": [ 13.401923, 52.518648 ] } },
{ "type": "Feature", "properties": { "id": "286", "layer": 0 }, "geometry": { "type": "Point", "coordinates": [ 13.405666, 52.5006 ] } },
{ "type": "Feature", "properties": { "id": "313", "layer": 0 }, "geometry": { "type": "Point", "coordinates": [ 13.41159, 52.509652 ] } },
{ "type": "Feature", "properties": { "id": "313", "layer": 0 }, "geometry": { "type": "Point", "coordinates": [ 13.423504, 52.499171 ] } },
{ "type": "Feature", "properties": { "id": "123", "layer": 0 }, "geometry": { "type": "Point", "coordinates": [ 13.475344, 52.528818 ] } },
{ "type": "Feature", "properties": { "id": "211", "layer": 0 }, "geometry": { "type": "Point", "coordinates": [ 13.398975, 52.479476 ] } },
{ "type": "Feature", "properties": { "id": "102", "layer": 0 }, "geometry": { "type": "Point", "coordinates": [ 13.433085, 52.485263 ] } },
{ "type": "Feature", "properties": { "id": "42", "layer": 0 }, "geometry": { "type": "Point", "coordinates": [ 13.478906, 52.507578 ] } },
{ "type": "Feature", "properties": { "id": "353", "layer": 0 }, "geometry": { "type": "Point", "coordinates": [ 13.422015, 52.476222 ] } },
{ "type": "Feature", "properties": { "id": "373", "layer": 0 }, "geometry": { "type": "Point", "coordinates": [ 13.436293, 52.545543 ] } },
{ "type": "Feature", "properties": { "id": "352", "layer": 0 }, "geometry": { "type": "Point", "coordinates": [ 13.402702, 52.523907 ] } },
{ "type": "Feature", "properties": { "id": "351", "layer": 0 }, "geometry": { "type": "Point", "coordinates": [ 13.352319, 52.506662 ] } },
{ "type": "Feature", "properties": { "id": "171", "layer": 0 }, "geometry": { "type": "Point", "coordinates": [ 13.334985, 52.523094 ] } },
{ "type": "Feature", "properties": { "id": "60", "layer": 0 }, "geometry": { "type": "Point", "coordinates": [ 13.473713, 52.512101 ] } },
{ "type": "Feature", "properties": { "id": "223", "layer": 0 }, "geometry": { "type": "Point", "coordinates": [ 13.464782, 52.518306 ] } },
{ "type": "Feature", "properties": { "id": "173", "layer": 0 }, "geometry": { "type": "Point", "coordinates": [ 13.384327, 52.511902 ] } },
{ "type": "Feature", "properties": { "id": "250", "layer": 0 }, "geometry": { "type": "Point", "coordinates": [ 13.409559, 52.540105 ] } },
{ "type": "Feature", "properties": { "id": "19", "layer": 0 }, "geometry": { "type": "Point", "coordinates": [ 13.482645, 52.512695 ] } },
{ "type": "Feature", "properties": { "id": "46", "layer": 0 }, "geometry": { "type": "Point", "coordinates": [ 13.354053, 52.538898 ] } },
{ "type": "Feature", "properties": { "id": "210", "layer": 0 }, "geometry": { "type": "Point", "coordinates": [ 13.451733, 52.499267 ] } },
{ "type": "Feature", "properties": { "id": "396", "layer": 0 }, "geometry": { "type": "Point", "coordinates": [ 13.450784, 52.534892 ] } },
{ "type": "Feature", "properties": { "id": "74", "layer": 0 }, "geometry": { "type": "Point", "coordinates": [ 13.415944, 52.542619 ] } },
{ "type": "Feature", "properties": { "id": "223", "layer": 0 }, "geometry": { "type": "Point", "coordinates": [ 13.439194, 52.480007 ] } },
{ "type": "Feature", "properties": { "id": "389", "layer": 0 }, "geometry": { "type": "Point", "coordinates": [ 13.433605, 52.528834 ] } },
{ "type": "Feature", "properties": { "id": "168", "layer": 0 }, "geometry": { "type": "Point", "coordinates": [ 13.441463, 52.494733 ] } },
{ "type": "Feature", "properties": { "id": "141", "layer": 0 }, "geometry": { "type": "Point", "coordinates": [ 13.39973, 52.513309 ] } },
{ "type": "Feature", "properties": { "id": "373", "layer": 0 }, "geometry": { "type": "Point", "coordinates": [ 13.404164, 52.526661 ] } },
{ "type": "Feature", "properties": { "id": "117", "layer": 0 }, "geometry": { "type": "Point", "coordinates": [ 13.409943, 52.52009 ] } },
{ "type": "Feature", "properties": { "id": "181", "layer": 0 }, "geometry": { "type": "Point", "coordinates": [ 13.446343, 52.531636 ] } },
{ "type": "Feature", "properties": { "id": "144", "layer": 0 }, "geometry": { "type": "Point", "coordinates": [ 13.406444, 52.517044 ] } },
{ "type": "Feature", "properties": { "id": "21", "layer": 0 }, "geometry": { "type": "Point", "coordinates": [ 13.465015, 52.476725 ] } },
{ "type": "Feature", "properties": { "id": "314", "layer": 0 }, "geometry": { "type": "Point", "coordinates": [ 13.48719, 52.520617 ] } },
{ "type": "Feature", "properties": { "id": "80", "layer": 0 }, "geometry": { "type": "Point", "coordinates": [ 13.350706, 52.535255 ] } },
{ "type": "Feature", "properties": { "id": "13", "layer": 0 }, "geometry": { "type": "Point", "coordinates": [ 13.333546, 52.479678 ] } },
{ "type": "Feature", "properties": { "id": "9", "layer": 0 }, "geometry": { "type": "Point", "coordinates": [ 13.442205, 52.527454 ] } },
{ "type": "Feature", "properties": { "id": "38", "layer": 0 }, "geometry": { "type": "Point", "coordinates": [ 13.392869, 52.514436 ] } },
{ "type": "Feature", "properties": { "id": "185", "layer": 0 }, "geometry": { "type": "Point", "coordinates": [ 13.398069, 52.526227 ] } },
{ "type": "Feature", "properties": { "id": "16", "layer": 0 }, "geometry": { "type": "Point", "coordinates": [ 13.374735, 52.526861 ] } },
{ "type": "Feature", "properties": { "id": "188", "layer": 0 }, "geometry": { "type": "Point", "coordinates": [ 13.371278, 52.514281 ] } },
{ "type": "Feature", "properties": { "id": "309", "layer": 0 }, "geometry": { "type": "Point", "coordinates": [ 13.365779, 52.518976 ] } },
{ "type": "Feature", "properties": { "id": "366", "layer": 0 }, "geometry": { "type": "Point", "coordinates": [ 13.47001, 52.491141 ] } },
{ "type": "Feature", "properties": { "id": "87", "layer": 0 }, "geometry": { "type": "Point", "coordinates": [ 13.34773, 52.53684 ] } },
{ "type": "Feature", "properties": { "id": "14", "layer": 0 }, "geometry": { "type": "Point", "coordinates": [ 13.421535, 52.536513 ] } },
{ "type": "Feature", "properties": { "id": "115", "layer": 0 }, "geometry": { "type": "Point", "coordinates": [ 13.468583, 52.477853 ] } },
{ "type": "Feature", "properties": { "id": "91", "layer": 0 }, "geometry": { "type": "Point", "coordinates": [ 13.400347, 52.527619 ] } },
{ "type": "Feature", "properties": { "id": "254", "layer": 0 }, "geometry": { "type": "Point", "coordinates": [ 13.49535, 52.536401 ] } },
{ "type": "Feature", "properties": { "id": "274", "layer": 0 }, "geometry": { "type": "Point", "coordinates": [ 13.465549, 52.504239 ] } },
{ "type": "Feature", "properties": { "id": "270", "layer": 0 }, "geometry": { "type": "Point", "coordinates": [ 13.360283, 52.507761 ] } },
{ "type": "Feature", "properties": { "id": "222", "layer": 0 }, "geometry": { "type": "Point", "coordinates": [ 13.482922, 52.508545 ] } },
{ "type": "Feature", "properties": { "id": "68", "layer": 0 }, "geometry": { "type": "Point", "coordinates": [ 13.332277, 52.510752 ] } },
{ "type": "Feature", "properties": { "id": "356", "layer": 0 }, "geometry": { "type": "Point", "coordinates": [ 13.345308, 52.540298 ] } },
{ "type": "Feature", "properties": { "id": "60", "layer": 0 }, "geometry": { "type": "Point", "coordinates": [ 13.460182, 52.532628 ] } },
{ "type": "Feature", "properties": { "id": "255", "layer": 0 }, "geometry": { "type": "Point", "coordinates": [ 13.487781, 52.476818 ] } },
{ "type": "Feature", "properties": { "id": "174", "layer": 0 }, "geometry": { "type": "Point", "coordinates": [ 13.446714, 52.476617 ] } },
{ "type": "Feature", "properties": { "id": "89", "layer": 0 }, "geometry": { "type": "Point", "coordinates": [ 13.465326, 52.484155 ] } },
{ "type": "Feature", "properties": { "id": "300", "layer": 0 }, "geometry": { "type": "Point", "coordinates": [ 13.442569, 52.503661 ] } },
{ "type": "Feature", "properties": { "id": "360", "layer": 0 }, "geometry": { "type": "Point", "coordinates": [ 13.454361, 52.4995 ] } },
{ "type": "Feature", "properties": { "id": "76", "layer": 0 }, "geometry": { "type": "Point", "coordinates": [ 13.469706, 52.517388 ] } },
{ "type": "Feature", "properties": { "id": "131", "layer": 0 }, "geometry": { "type": "Point", "coordinates": [ 13.464415, 52.53007 ] } },
{ "type": "Feature", "properties": { "id": "196", "layer": 0 }, "geometry": { "type": "Point", "coordinates": [ 13.410455, 52.509192 ] } },
{ "type": "Feature", "properties": { "id": "90", "layer": 0 }, "geometry": { "type": "Point", "coordinates": [ 13.418592, 52.491983 ] } },
{ "type": "Feature", "properties": { "id": "0", "layer": 0 }, "geometry": { "type": "Point", "coordinates": [ 13.391616, 52.49682 ] } },
{ "type": "Feature", "properties": { "id": "276", "layer": 0 }, "geometry": { "type": "Point", "coordinates": [ 13.440466, 52.54287 ] } },
{ "type": "Feature", "properties": { "id": "214", "layer": 0 }, "geometry": { "type": "Point", "coordinates": [ 13.397259, 52.527065 ] } },
{ "type": "Feature", "properties": { "id": "311", "layer": 0 }, "geometry": { "type": "Point", "coordinates": [ 13.449626, 52.542469 ] } },
{ "type": "Feature", "properties": { "id": "91", "layer": 0 }, "geometry": { "type": "Point", "coordinates": [ 13.458121, 52.486956 ] } },
{ "type": "Feature", "properties": { "id": "224", "layer": 0 }, "geometry": { "type": "Point", "coordinates": [ 13.340387, 52.489635 ] } },
{ "type": "Feature", "properties": { "id": "179", "layer": 0 }, "geometry": { "type": "Point", "coordinates": [ 13.394819, 52.495022 ] } },
{ "type": "Feature", "properties": { "id": "361", "layer": 0 }, "geometry": { "type": "Point", "coordinates": [ 13.379105, 52.485449 ] } },
{ "type": "Feature", "properties": { "id": "117", "layer": 0 }, "geometry": { "type": "Point", "coordinates": [ 13.423377, 52.519383 ] } },
{ "type": "Feature", "properties": { "id": "3", "layer": 0 }, "geometry": { "type": "Point", "coordinates": [ 13.457114, 52.507155 ] } },
{ "type": "Feature", "properties": { "id": "367", "layer": 0 }, "geometry": { "type": "Point", "coordinates": [ 13.421776, 52.531971 ] } },
{ "type": "Feature", "properties": { "id": "161", "layer": 0 }, "geometry": { "type": "Point", "coordinates": [ 13.46014, 52.500969 ] } },
{ "type": "Feature", "properties": { "id": "220", "layer": 0 }, "geometry": { "type": "Point", "coordinates": [ 13.475769, 52.487915 ] } },
{ "type": "Feature", "properties": { "id": "126", "layer": 0 }, "geometry": { "type": "Point", "coordinates": [ 13.361232, 52.531783 ] } },
{ "type": "Feature", "properties": { "id": "222", "layer": 0 }, "geometry": { "type": "Point", "coordinates": [ 13.47848, 52.480424 ] } },
{ "type": "Feature", "properties": { "id": "126", "layer": 0 }, "geometry": { "type": "Point", "coordinates": [ 13.34055, 52.48515 ] } },
{ "type": "Feature", "properties": { "id": "234", "layer": 0 }, "geometry": { "type": "Point", "coordinates": [ 13.387898, 52.497165 ] } },
{ "type": "Feature", "properties": { "id": "186", "layer": 0 }, "geometry": { "type": "Point", "coordinates": [ 13.426571, 52.525329 ] } },
{ "type": "Feature", "properties": { "id": "257", "layer": 0 }, "geometry": { "type": "Point", "coordinates": [ 13.433668, 52.498685 ] } },
{ "type": "Feature", "properties": { "id": "393", "layer": 0 }, "geometry": { "type": "Point", "coordinates": [ 13.352721, 52.544127 ] } },
{ "type": "Feature", "properties": { "id": "379", "layer": 0 }, "geometry": { "type": "Point", "coordinates": [ 13.416824, 52.536345 ] } },
{ "type": "Feature", "properties": { "id": "191", "layer": 0 }, "geometry": { "type": "Point", "coordinates": [ 13.447224, 52.516584 ] } },
{ "type": "Feature", "properties": { "id": "241", "layer": 0 }, "geometry": { "type": "Point", "coordinates": [ 13.424984, 52.536399 ] } },
{ "type": "Feature", "properties": { "id": "386", "layer": 0 }, "geometry": { "type": "Point", "coordinates": [ 13.366344, 52.523316 ] } },
{ "type": "Feature", "properties": { "id": "249", "layer": 0 }, "geometry": { "type": "Point", "coordinates": [ 13.365061, 52.518517 ] } },
{ "type": "Feature", "properties": { "id": "17", "layer": 0 }, "geometry": { "type": "Point", "coordinates": [ 13.417583, 52.521436 ] } },
{ "type": "Feature", "properties": { "id": "341", "layer": 0 }, "geometry": { "type": "Point", "coordinates": [ 13.394551, 52.505758 ] } },
{ "type": "Feature", "properties": { "id": "295", "layer": 0 }, "geometry": { "type": "Point", "coordinates": [ 13.353348, 52.521732 ] } },
{ "type": "Feature", "properties": { "id": "1", "layer": 0 }, "geometry": { "type": "Point", "coordinates": [ 13.369208, 52.543294 ] } },
{ "type": "Feature", "properties": { "id": "341", "layer": 0 }, "geometry": { "type": "Point", "coordinates": [ 13.376831, 52.493249 ] } },
{ "type": "Feature", "properties": { "id": "41", "layer": 0 }, "geometry": { "type": "Point", "coordinates": [ 13.366201, 52.51003 ] } },
{ "type": "Feature", "properties": { "id": "96", "layer": 0 }, "geometry": { "type": "Point", "coordinates": [ 13.489765, 52.545733 ] } },
{ "type": "Feature", "properties": { "id": "155", "layer": 0 }, "geometry": { "type": "Point", "coordinates": [ 13.393918, 52.484915 ] } },
{ "type": "Feature", "properties": { "id": "65", "layer": 0 }, "geometry": { "type": "Point", "coordinates": [ 13.470414, 52.493354 ] } },
{ "type": "Feature", "properties": { "id": "321", "layer": 0 }, "geometry": { "type": "Point", "coordinates": [ 13.342229, 52.520477 ] } },
{ "type": "Feature", "properties": { "id": "335", "layer": 0 }, "geometry": { "type": "Point", "coordinates": [ 13.408955, 52.485412 ] } },
{ "type": "Feature", "properties": { "id": "204", "layer": 0 }, "geometry": { "type": "Point", "coordinates": [ 13.458641, 52.491367 ] } },
{ "type": "Feature", "properties": { "id": "326", "layer": 0 }, "geometry": { "type": "Point", "coordinates": [ 13.339947, 52.512997 ] } },
{ "type": "Feature", "properties": { "id": "136", "layer": 0 }, "geometry": { "type": "Point", "coordinates": [ 13.432881, 52.540783 ] } },
{ "type": "Feature", "properties": { "id": "305", "layer": 0 }, "geometry": { "type": "Point", "coordinates": [ 13.378908, 52.517525 ] } },
{ "type": "Feature", "properties": { "id": "52", "layer": 0 }, "geometry": { "type": "Point", "coordinates": [ 13.473997, 52.487798 ] } },
{ "type": "Feature", "properties": { "id": "379", "layer": 0 }, "geometry": { "type": "Point", "coordinates": [ 13.427346, 52.500226 ] } },
{ "type": "Feature", "properties": { "id": "7", "layer": 0 }, "geometry": { "type": "Point", "coordinates": [ 13.488291, 52.479874 ] } },
{ "type": "Feature", "properties": { "id": "205", "layer": 0 }, "geometry": { "type": "Point", "coordinates": [ 13.417636, 52.506081 ] } },
{ "type": "Feature", "properties": { "id": "79", "layer": 0 }, "geometry": { "type": "Point", "coordinates": [ 13.400368, 52.50553 ] } },
{ "type": "Feature", "properties": { "id": "165", "layer": 0 }, "geometry": { "type": "Point", "coordinates": [ 13.425802, 52.534149 ] } },
{ "type": "Feature", "properties": { "id": "345", "layer": 0 }, "geometry": { "type": "Point", "coordinates": [ 13.328485, 52.511224 ] } },
{ "type": "Feature", "properties": { "id": "49", "layer": 0 }, "geometry": { "type": "Point", "coordinates": [ 13.479769, 52.518389 ] } },
{ "type": "Feature", "properties": { "id": "215", "layer": 0 }, "geometry": { "type": "Point", "coordinates": [ 13.48441, 52.520479 ] } },
{ "type": "Feature", "properties": { "id": "169", "layer": 0 }, "geometry": { "type": "Point", "coordinates": [ 13.366716, 52.546989 ] } },
{ "type": "Feature", "properties": { "id": "148", "layer": 0 }, "geometry": { "type": "Point", "coordinates": [ 13.440729, 52.525383 ] } },
{ "type": "Feature", "properties": { "id": "394", "layer": 0 }, "geometry": { "type": "Point", "coordinates": [ 13.351989, 52.496783 ] } },
{ "type": "Feature", "properties": { "id": "338", "layer": 0 }, "geometry": { "type": "Point", "coordinates": [ 13.379786, 52.530292 ] } },
{ "type": "Feature", "properties": { "id": "206", "layer": 0 }, "geometry": { "type": "Point", "coordinates": [ 13.409172, 52.494893 ] } },
{ "type": "Feature", "properties": { "id": "35", "layer": 0 }, "geometry": { "type": "Point", "coordinates": [ 13.425041, 52.484539 ] } },
{ "type": "Feature", "properties": { "id": "383", "layer": 0 }, "geometry": { "type": "Point", "coordinates": [ 13.364251, 52.539682 ] } },
{ "type": "Feature", "properties": { "id": "306", "layer": 0 }, "geometry": { "type": "Point", "coordinates": [ 13.456943, 52.534435 ] } },
{ "type": "Feature", "properties": { "id": "390", "layer": 0 }, "geometry": { "type": "Point", "coordinates": [ 13.421184, 52.481832 ] } },
{ "type": "Feature", "properties": { "id": "93", "layer": 0 }, "geometry": { "type": "Point", "coordinates": [ 13.394986, 52.530229 ] } },
{ "type": "Feature", "properties": { "id": "139", "layer": 0 }, "geometry": { "type": "Point", "coordinates": [ 13.385569, 52.538528 ] } },
{ "type": "Feature", "properties": { "id": "263", "layer": 0 }, "geometry": { "type": "Point", "coordinates": [ 13.408728, 52.518089 ] } },
{ "type": "Feature", "properties": { "id": "186", "layer": 0 }, "geometry": { "type": "Point", "coordinates": [ 13.34203, 52.539068 ] } },
{ "type": "Feature", "properties": { "id": "99", "layer": 0 }, "geometry": { "type": "Point", "coordinates": [ 13.402904, 52.488516 ] } },
{ "type": "Feature", "properties": { "id": "243", "layer": 0 }, "geometry": { "type": "Point", "coordinates": [ 13.472648, 52.503384 ] } },
{ "type": "Feature", "properties": { "id": "224", "layer": 0 }, "geometry": { "type": "Point", "coordinates": [ 13.411608, 52.492387 ] } },
{ "type": "Feature", "properties": { "id": "371", "layer": 0 }, "geometry": { "type": "Point", "coordinates": [ 13.391117, 52.522703 ] } },
{ "type": "Feature", "properties": { "id": "193", "layer": 0 }, "geometry": { "type": "Point", "coordinates": [ 13.420112, 52.522833 ] } },
{ "type": "Feature", "properties": { "id": "77", "layer": 0 }, "geometry": { "type": "Point", "coordinates": [ 13.468497, 52.525999 ] } },
{ "type": "Feature", "properties": { "id": "38", "layer": 0 }, "geometry": { "type": "Point", "coordinates": [ 13.431033, 52.501708 ] } },
{ "type": "Feature", "properties": { "id": "305", "layer": 0 }, "geometry": { "type": "Point", "coordinates": [ 13.486449, 52.523981 ] } },
{ "type": "Feature", "properties": { "id": "73", "layer": 0 }, "geometry": { "type": "Point", "coordinates": [ 13.368496, 52.527415 ] } },
{ "type": "Feature", "properties": { "id": "56", "layer": 0 }, "geometry": { "type": "Point", "coordinates": [ 13.384161, 52.47765 ] } },
{ "type": "Feature", "properties": { "id": "230", "layer": 0 }, "geometry": { "type": "Point", "coordinates": [ 13.362955, 52.505122 ] } },
{ "type": "Feature", "properties": { "id": "242", "layer": 0 }, "geometry": { "type": "Point", "coordinates": [ 13.371496, 52.526156 ] } },
{ "type": "Feature", "properties": { "id": "385", "layer": 0 }, "geometry": { "type": "Point", "coordinates": [ 13.45965, 52.504603 ] } },
{ "type": "Feature", "properties": { "id": "328", "layer": 0 }, "geometry": { "type": "Point", "coordinates": [ 13.416458, 52.539625 ] } },
{ "type": "Feature", "properties": { "id": "87", "layer": 0 }, "geometry": { "type": "Point", "coordinates": [ 13.463717, 52.518431 ] } },
{ "type": "Feature", "properties": { "id": "112", "layer": 0 }, "geometry": { "type": "Point", "coordinates": [ 13.461505, 52.516946 ] } },
{ "type": "Feature", "properties": { "id": "147", "layer": 0 }, "geometry": { "type": "Point", "coordinates": [ 13.495188, 52.488655 ] } },
{ "type": "Feature", "properties": { "id": "182", "layer": 0 }, "geometry": { "type": "Point", "coordinates": [ 13.411994, 52.480779 ] } },
{ "type": "Feature", "properties": { "id": "111", "layer": 0 }, "geometry": { "type": "Point", "coordinates": [ 13.460848, 52.529671 ] } },
{ "type": "Feature", "properties": { "id": "140", "layer": 0 }, "geometry": { "type": "Point", "coordinates": [ 13.428799, 52.487871 ] } },
{ "type": "Feature", "properties": { "id": "194", "layer": 0 }, "geometry": { "type": "Point", "coordinates": [ 13.417802, 52.529339 ] } },
{ "type": "Feature", "properties": { "id": "82", "layer": 0 }, "geometry": { "type": "Point", "coordinates": [ 13.423765, 52.538929 ] } },
{ "type": "Feature", "properties": { "id": "340", "layer": 0 }, "geometry": { "type": "Point", "coordinates": [ 13.466407, 52.518798 ] } },
{ "type": "Feature", "properties": { "id": "76", "layer": 0 }, "geometry": { "type": "Point", "coordinates": [ 13.422793, 52.485162 ] } },
{ "type": "Feature", "properties": { "id": "390", "layer": 0 }, "geometry": { "type": "Point", "coordinates": [ 13.382371, 52.516512 ] } },
{ "type": "Feature", "properties": { "id": "271", "layer": 0 }, "geometry": { "type": "Point", "coordinates": [ 13.376926, 52.509857 ] } },
{ "type": "Feature", "properties": { "id": "19", "layer": 0 }, "geometry": { "type": "Point", "coordinates": [ 13.348316, 52.548907 ] } },
{ "type": "Feature", "properties": { "id": "174", "layer": 0 }, "geometry": { "type": "Point", "coordinates": [ 13.407189, 52.493318 ] } },
{ "type": "Feature", "properties": { "id": "128", "layer": 0 }, "geometry": { "type": "Point", "coordinates": [ 13.336052, 52.489322 ] } },
{ "type": "Feature", "properties": { "id": "183", "layer": 0 }, "geometry": { "type": "Point", "coordinates": [ 13.363186, 52.506609 ] } },
{ "type": "Feature", "properties": { "id": "6", "layer": 0 }, "geometry": { "type": "Point", "coordinates": [ 13.445988, 52.520292 ] } },
{ "type": "Feature", "properties": { "id": "330", "layer": 0 }, "geometry": { "type": "Point", "coordinates": [ 13.423024, 52.478807 ] } },
{ "type": "Feature", "properties": { "id": "378", "layer": 0 }, "geometry": { "type": "Point", "coordinates": [ 13.482064, 52.530351 ] } },
{ "type": "Feature", "properties": { "id": "193", "layer": 0 }, "geometry": { "type": "Point", "coordinates": [ 13.354399, 52.506358 ] } },
{ "type": "Feature", "properties": { "id": "232", "layer": 0 }, "geometry": { "type": "Point", "coordinates": [ 13.364047, 52.532104 ] } },
{ "type": "Feature", "properties": { "id": "163", "layer": 0 }, "geometry": { "type": "Point", "coordinates": [ 13.462939, 52.517068 ] } },
{ "type": "Feature", "properties": { "id": "11", "layer": 0 }, "geometry": { "type": "Point", "coordinates": [ 13.405412, 52.520684 ] } },
{ "type": "Feature", "properties": { "id": "154", "layer": 0 }, "geometry": { "type": "Point", "coordinates": [ 13.488275, 52.533032 ] } },
{ "type": "Feature", "properties": { "id": "86", "layer": 0 }, "geometry": { "type": "Point", "coordinates": [ 13.451604, 52.477763 ] } },
{ "type": "Feature", "properties": { "id": "277", "layer": 0 }, "geometry": { "type": "Point", "coordinates": [ 13.469419, 52.513545 ] } },
{ "type": "Feature", "properties": { "id": "288", "layer": 0 }, "geometry": { "type": "Point", "coordinates": [ 13.387036, 52.502559 ] } },
{ "type": "Feature", "properties": { "id": "97", "layer": 0 }, "geometry": { "type": "Point", "coordinates": [ 13.495877, 52.500254 ] } },
{ "type": "Feature", "properties": { "id": "109", "layer": 0 }, "geometry": { "type": "Point", "coordinates": [ 13.402209, 52.541575 ] } },
{ "type": "Feature", "properties": { "id": "92", "layer": 0 }, "geometry": { "type": "Point", "coordinates": [ 13.405142, 52.523972 ] } },
{ "type": "Feature", "properties": { "id": "146", "layer": 0 }, "geometry": { "type": "Point", "coordinates": [ 13.346293, 52.525474 ] } },
{ "type": "Feature", "properties": { "id": "101", "layer": 0 }, "geometry": { "type": "Point", "coordinates": [ 13.452777, 52.512408 ] } },
{ "type": "Feature", "properties": { "id": "172", "layer": 0 }, "geometry": { "type": "Point", "coordinates": [ 13.434511, 52.549176 ] } },
{ "type": "Feature", "properties": { "id": "273", "layer": 0 }, "geometry": { "type": "Point", "coordinates": [ 13.412286, 52.538017 ] } },
{ "type": "Feature", "properties": { "id": "112", "layer": 0 }, "geometry": { "type": "Point", "coordinates": [ 13.415795, 52.482445 ] } },
{ "type": "Feature", "properties": { "id": "281", "layer": 0 }, "geometry": { "type": "Point", "coordinates": [ 13.431404, 52.523152 ] } },
{ "type": "Feature", "properties": { "id": "9", "layer": 0 }, "geometry": { "type": "Point", "coordinates": [ 13.422197, 52.528647 ] } },
{ "type": "Feature", "properties": { "id": "160", "layer": 0 }, "geometry": { "type": "Point", "coordinates": [ 13.365134, 52.476155 ] } },
{ "type": "Feature", "properties": { "id": "162", "layer": 0 }, "geometry": { "type": "Point", "coordinates": [ 13.477666, 52.519907 ] } },
{ "type": "Feature", "properties": { "id": "118", "layer": 0 }, "geometry": { "type": "Point", "coordinates": [ 13.336277, 52.517152 ] } },
{ "type": "Feature", "properties": { "id": "139", "layer": 0 }, "geometry": { "type": "Point", "coordinates": [ 13.399088, 52.504614 ] } },
{ "type": "Feature", "properties": { "id": "315", "layer": 0 }, "geometry": { "type": "Point", "coordinates": [ 13.347008, 52.540589 ] } },
{ "type": "Feature", "properties": { "id": "296", "layer": 0 }, "geometry": { "type": "Point", "coordinates": [ 13.350891, 52.520488 ] } },
{ "type": "Feature", "properties": { "id": "398", "layer": 0 }, "geometry": { "type": "Point", "coordinates": [ 13.416266, 52.528798 ] } },
{ "type": "Feature", "properties": { "id": "43", "layer": 0 }, "geometry": { "type": "Point", "coordinates": [ 13.478163, 52.491413 ] } },
{ "type": "Feature", "properties": { "id": "109", "layer": 0 }, "geometry": { "type": "Point", "coordinates": [ 13.487581, 52.519714 ] } },
{ "type": "Feature", "properties": { "id": "1", "layer": 0 }, "geometry": { "type": "Point", "coordinates": [ 13.45305, 52.529721 ] } },
{ "type": "Feature", "properties": { "id": "94", "layer": 0 }, "geometry": { "type": "Point", "coordinates": [ 13.415698, 52.508137 ] } },
{ "type": "Feature", "properties": { "id": "119", "layer": 0 }, "geometry": { "type": "Point", "coordinates": [ 13.359991, 52.521149 ] } },
{ "type": "Feature", "properties": { "id": "348", "layer": 0 }, "geometry": { "type": "Point", "coordinates": [ 13.376307, 52.521912 ] } },
{ "type": "Feature", "properties": { "id": "312", "layer": 0 }, "geometry": { "type": "Point", "coordinates": [ 13.354239, 52.516939 ] } },
{ "type": "Feature", "properties": { "id": "29", "layer": 0 }, "geometry": { "type": "Point", "coordinates": [ 13.44134, 52.484332 ] } },
{ "type": "Feature", "properties": { "id": "122", "layer": 0 }, "geometry": { "type": "Point", "coordinates": [ 13.410087, 52.548444 ] } },
{ "type": "Feature", "properties": { "id": "37", "layer": 0 }, "geometry": { "type": "Point", "coordinates": [ 13.378772, 52.494383 ] } },
{ "type": "Feature", "properties": { "id": "311", "layer": 0 }, "geometry": { "type": "Point", "coordinates": [ 13.368059, 52.546068 ] } },
{ "type": "Feature", "properties": { "id": "51", "layer": 0 }, "geometry": { "type": "Point", "coordinates": [ 13.407196, 52.511395 ] } },
{ "type": "Feature", "properties": { "id": "363", "layer": 0 }, "geometry": { "type": "Point", "coordinates": [ 13.41963, 52.512326 ] } },
{ "type": "Feature", "properties": { "id": "180", "layer": 0 }, "geometry": { "type": "Point", "coordinates": [ 13.385436, 52.494127 ] } },
{ "type": "Feature", "properties": { "id": "176", "layer": 0 }, "geometry": { "type": "Point", "coordinates": [ 13.362862, 52.516182 ] } },
{ "type": "Feature", "properties": { "id": "207", "layer": 0 }, "geometry": { "type": "Point", "coordinates": [ 13.391959, 52.509679 ] } },
{ "type": "Feature", "properties": { "id": "287", "layer": 0 }, "geometry": { "type": "Point", "coordinates": [ 13.359857, 52.536015 ] } },
{ "type": "Feature", "properties": { "id": "75", "layer": 0 }, "geometry": { "type": "Point", "coordinates": [ 13.379335, 52.535528 ] } },
{ "type": "Feature", "properties": { "id": "395", "layer": 0 }, "geometry": { "type": "Point", "coordinates": [ 13.452236, 52.537971 ] } },
{ "type": "Feature", "properties": { "id": "32", "layer": 0 }, "geometry": { "type": "Point", "coordinates": [ 13.445663, 52.511473 ] } },
{ "type": "Feature", "properties": { "id": "104", "layer": 0 }, "geometry": { "type": "Point", "coordinates": [ 13.381361, 52.54542 ] } },
{ "type": "Feature", "properties": { "id": "17", "layer": 0 }, "geometry": { "type": "Point", "coordinates": [ 13.479096, 52.540962 ] } },
{ "type": "Feature", "properties": { "id": "88", "layer": 0 }, "geometry": { "type": "Point", "coordinates": [ 13.356071, 52.491615 ] } },
{ "type": "Feature", "properties": { "id": "221", "layer": 0 }, "geometry": { "type": "Point", "coordinates": [ 13.348979, 52.478852 ] } },
{ "type": "Feature", "properties": { "id": "207", "layer": 0 }, "geometry": { "type": "Point", "coordinates": [ 13.343019, 52.521904 ] } },
{ "type": "Feature", "properties": { "id": "253", "layer": 0 }, "geometry": { "type": "Point", "coordinates": [ 13.468874, 52.501831 ] } },
{ "type": "Feature", "properties": { "id": "330", "layer": 0 }, "geometry": { "type": "Point", "coordinates": [ 13.403704, 52.539708 ] } },
{ "type": "Feature", "properties": { "id": "25", "layer": 0 }, "geometry": { "type": "Point", "coordinates": [ 13.38556, 52.5202 ] } },
{ "type": "Feature", "properties": { "id": "85", "layer": 0 }, "geometry": { "type": "Point", "coordinates": [ 13.400549, 52.511411 ] } },
{ "type": "Feature", "properties": { "id": "324", "layer": 0 }, "geometry": { "type": "Point", "coordinates": [ 13.469076, 52.522142 ] } },
{ "type": "Feature", "properties": { "id": "326", "layer": 0 }, "geometry": { "type": "Point", "coordinates": [ 13.337633, 52.488449 ] } },
{ "type": "Feature", "properties": { "id": "387", "layer": 0 }, "geometry": { "type": "Point", "coordinates": [ 13.475614, 52.526169 ] } },
{ "type": "Feature", "properties": { "id": "316", "layer": 0 }, "geometry": { "type": "Point", "coordinates": [ 13.442715, 52.515333 ] } },
{ "type": "Feature", "properties": { "id": "332", "layer": 0 }, "geometry": { "type": "Point", "coordinates": [ 13.346399, 52.527555 ] } },
{ "type": "Feature", "properties": { "id": "346", "layer": 0 }, "geometry": { "type": "Point", "coordinates": [ 13.412819, 52.518102 ] } },
{ "type": "Feature", "properties": { "id": "12", "layer": 0 }, "geometry": { "type": "Point", "coordinates": [ 13.385775, 52.483162 ] } },
{ "type": "Feature", "properties": { "id": "114", "layer": 0 }, "geometry": { "type": "Point", "coordinates": [ 13.491704, 52.536233 ] } },
{ "type": "Feature", "properties": { "id": "399", "layer": 0 }, "geometry": { "type": "Point", "coordinates": [ 13.362525, 52.483013 ] } },
{ "type": "Feature", "properties": { "id": "36", "layer": 0 }, "geometry": { "type": "Point", "coordinates": [ 13.415048, 52.533611 ] } },
{ "type": "Feature", "properties": { "id": "5", "layer": 0 }, "geometry": { "type": "Point", "coordinates": [ 13.489981, 52.500677 ] } },
{ "type": "Feature", "properties": { "id": "28", "layer": 0 }, "geometry": { "type": "Point", "coordinates": [ 13.46883, 52.509937 ] } },
{ "type": "Feature", "properties": { "id": "68", "layer": 0 }, "geometry": { "type": "Point", "coordinates": [ 13.421756, 52.487292 ] } },
{ "type": "Feature", "properties": { "id": "294", "layer": 0 }, "geometry": { "type": "Point", "coordinates": [ 13.475644, 52.513443 ] } },
{ "type": "Feature", "properties": { "id": "175", "layer": 0 }, "geometry": { "type": "Point", "coordinates": [ 13.475491, 52.494749 ] } },
{ "type": "Feature", "properties": { "id": "291", "layer": 0 }, "geometry": { "type": "Point", "coordinates": [ 13.345332, 52.486466 ] } },
{ "type": "Feature", "properties": { "id": "395", "layer": 0 }, "geometry": { "type": "Point", "coordinates": [ 13.328277, 52.476979 ] } },
{ "type": "Feature", "properties": { "id": "248", "layer": 0 }, "geometry": { "type": "Point", "coordinates": [ 13.430491, 52.544701 ] } },
{ "type": "Feature", "properties": { "id": "47", "layer": 0 }, "geometry": { "type": "Point", "coordinates": [ 13.471019, 52.527861 ] } },
{ "type": "Feature", "properties": { "id": "339", "layer": 0 }, "geometry": { "type": "Point", "coordinates": [ 13.334119, 52.495057 ] } },
{ "type": "Feature", "properties": { "id": "208", "layer": 0 }, "geometry": { "type": "Point", "coordinates": [ 13.406702, 52.508518 ] } },
{ "type": "Feature", "properties": { "id": "190", "layer": 0 }, "geometry": { "type": "Point", "coordinates": [ 13.345603, 52.546519 ] } },
{ "type": "Feature", "properties": { "id": "63", "layer": 0 }, "geometry": { "type": "Point", "coordinates": [ 13.340302, 52.532614 ] } },
{ "type": "Feature", "properties": { "id": "289", "layer": 0 }, "geometry": { "type": "Point", "coordinates": [ 13.4904, 52.540616 ] } },
{ "type": "Feature", "properties": { "id": "381", "layer": 0 }, "geometry": { "type": "Point", "coordinates": [ 13.34133, 52.533046 ] } },
{ "type": "Feature", "properties": { "id": "362", "layer": 0 }, "geometry": { "type": "Point", "coordinates": [ 13.407098, 52.498787 ] } },
{ "type": "Feature", "properties": { "id": "367", "layer": 0 }, "geometry": { "type": "Point", "coordinates": [ 13.338341, 52.505914 ] } },
{ "type": "Feature", "properties": { "id": "58", "layer": 0 }, "geometry": { "type": "Point", "coordinates": [ 13.357758, 52.50722 ] } },
{ "type": "Feature", "properties": { "id": "22", "layer": 0 }, "geometry": { "type": "Point", "coordinates": [ 13.460624, 52.4777 ] } },
{ "type": "Feature", "properties": { "id": "150", "layer": 0 }, "geometry": { "type": "Point", "coordinates": [ 13.468981, 52.517651 ] } },
{ "type": "Feature", "properties": { "id": "206", "layer": 0 }, "geometry": { "type": "Point", "coordinates": [ 13.390816, 52.519047 ] } },
{ "type": "Feature", "properties": { "id": "28", "layer": 0 }, "geometry": { "type": "Point", "coordinates": [ 13.476722, 52.531632 ] } },
{ "type": "Feature", "properties": { "id": "253", "layer": 0 }, "geometry": { "type": "Point", "coordinates": [ 13.431501, 52.524252 ] } },
{ "type": "Feature", "properties": { "id": "158", "layer": 0 }, "geometry": { "type": "Point", "coordinates": [ 13.482699, 52.511561 ] } },
{ "type": "Feature", "properties": { "id": "333", "layer": 0 }, "geometry": { "type": "Point", "coordinates": [ 13.353626, 52.493641 ] } },
{ "type": "Feature", "properties": { "id": "389", "layer": 0 }, "geometry": { "type": "Point", "coordinates": [ 13.36144, 52.522968 ] } },
{ "type": "Feature", "properties": { "id": "3", "layer": 0 }, "geometry": { "type": "Point", "coordinates": [ 13.393943, 52.485753 ] } },
{ "type": "Feature", "properties": { "id": "67", "layer": 0 }, "geometry": { "type": "Point", "coordinates": [ 13.384029, 52.481688 ] } },
{ "type": "Feature", "properties": { "id": "354", "layer": 0 }, "geometry": { "type": "Point", "coordinates": [ 13.448745, 52.49759 ] } },
{ "type": "Feature", "properties": { "id": "370", "layer": 0 }, "geometry": { "type": "Point", "coordinates": [ 13.472005, 52.523112 ] } },
{ "type": "Feature", "properties": { "id": "52", "layer": 0 }, "geometry": { "type": "Point", "coordinates": [ 13.462666, 52.549793 ] } },
{ "type": "Feature", "properties": { "id": "153", "layer": 0 }, "geometry": { "type": "Point", "coordinates": [ 13.433442, 52.491179 ] } },
{ "type": "Feature", "properties": { "id": "289", "layer": 0 }, "geometry": { "type": "Point", "coordinates": [ 13.458643, 52.485958 ] } },
{ "type": "Feature", "properties": { "id": "349", "layer": 0 }, "geometry": { "type": "Point", "coordinates": [ 13.412216, 52.524802 ] } },
{ "type": "Feature", "properties": { "id": "49", "layer": 0 }, "geometry": { "type": "Point", "coordinates": [ 13.443348, 52.497674 ] } },
{ "type": "Feature", "properties": { "id": "317", "layer": 0 }, "geometry": { "type": "Point", "coordinates": [ 13.482459, 52.543794 ] } },
{ "type": "Feature", "properties": { "id": "67", "layer": 0 }, "geometry": { "type": "Point", "coordinates": [ 13.47828, 52.510399 ] } },
{ "type": "Feature", "properties": { "id": "256", "layer": 0 }, "geometry": { "type": "Point", "coordinates": [ 13.367694, 52.506843 ] } },
{ "type": "Feature", "properties": { "id": "41", "layer": 0 }, "geometry": { "type": "Point", "coordinates": [ 13.404423, 52.522798 ] } },
{ "type": "Feature", "properties": { "id": "141", "layer": 0 }, "geometry": { "type": "Point", "coordinates": [ 13.401976, 52.524855 ] } },
{ "type": "Feature", "properties": { "id": "282", "layer": 0 }, "geometry": { "type": "Point", "coordinates": [ 13.491921, 52.482915 ] } },
{ "type": "Feature", "properties": { "id": "99", "layer": 0 }, "geometry": { "type": "Point", "coordinates": [ 13.41182, 52.501658 ] } },
{ "type": "Feature", "properties": { "id": "267", "layer": 0 }, "geometry": { "type": "Point", "coordinates": [ 13.425141, 52.532634 ] } },
{ "type": "Feature", "properties": { "id": "187", "layer": 0 }, "geometry": { "type": "Point", "coordinates": [ 13.45568, 52.515457 ] } },
{ "type": "Feature", "properties": { "id": "151", "layer": 0 }, "geometry": { "type": "Point", "coordinates": [ 13.401133, 52.540391 ] } },
{ "type": "Feature", "properties": { "id": "200", "layer": 0 }, "geometry": { "type": "Point", "coordinates": [ 13.485567, 52.494523 ] } },
{ "type": "Feature", "properties": { "id": "316", "layer": 0 }, "geometry": { "type": "Point", "coordinates": [ 13.438952, 52.519886 ] } },
{ "type": "Feature", "properties": { "id": "227", "layer": 0 }, "geometry": { "type": "Point", "coordinates": [ 13.42969, 52.482972 ] } },
{ "type": "Feature", "properties": { "id": "241", "layer": 0 }, "geometry": { "type": "Point", "coordinates": [ 13.423908, 52.529689 ] } },
{ "type": "Feature", "properties": { "id": "328", "layer": 0 }, "geometry": { "type": "Point", "coordinates": [ 13.461264, 52.534454 ] } },
{ "type": "Feature", "properties": { "id": "37", "layer": 0 }, "geometry": { "type": "Point", "coordinates": [ 13.337221, 52.51641 ] } },
{ "type": "Feature", "properties": { "id": "11", "layer": 0 }, "geometry": { "type": "Point", "coordinates": [ 13.461259, 52.525797 ] } },
{ "type": "Feature", "properties": { "id": "303", "layer": 0 }, "geometry": { "type": "Point", "coordinates": [ 13.370771, 52.501977 ] } },
{ "type": "Feature", "properties": { "id": "202", "layer": 0 }, "geometry": { "type": "Point", "coordinates": [ 13.410642, 52.532374 ] } },
{ "type": "Feature", "properties": { "id": "283", "layer": 0 }, "geometry": { "type": "Point", "coordinates": [ 13.4859, 52.480499 ] } },
{ "type": "Feature", "properties": { "id": "7", "layer": 0 }, "geometry": { "type": "Point", "coordinates": [ 13.464316, 52.504728 ] } },
{ "type": "Feature", "properties": { "id": "199", "layer": 0 }, "geometry": { "type": "Point", "coordinates": [ 13.377245, 52.492425 ] } },
{ "type": "Feature", "properties": { "id": "334", "layer": 0 }, "geometry": { "type": "Point", "coordinates": [ 13.466962, 52.540811 ] } },
{ "type": "Feature", "properties": { "id": "47", "layer": 0 }, "geometry": { "type": "Point", "coordinates": [ 13.408843, 52.52673 ] } },
{ "type": "Feature", "properties": { "id": "35", "layer": 0 }, "geometry": { "type": "Point", "coordinates": [ 13.450195, 52.51936 ] } },
{ "type": "Feature", "properties": { "id": "346", "layer": 0 }, "geometry": { "type": "Point", "coordinates": [ 13.408189, 52.516825 ] } },
{ "type": "Feature", "properties": { "id": "84", "layer": 0 }, "geometry": { "type": "Point", "coordinates": [ 13.438563, 52.476562 ] } },
{ "type": "Feature", "properties": { "id": "88", "layer": 0 }, "geometry": { "type": "Point", "coordinates": [ 13.476839, 52.504979 ] } },
{ "type": "Feature", "properties": { "id": "64", "layer": 0 }, "geometry": { "type": "Point", "coordinates": [ 13.435317, 52.54092 ] } },
{ "type": "Feature", "properties": { "id": "177", "layer": 0 }, "geometry": { "type": "Point", "coordinates": [ 13.383677, 52.523612 ] } },
{ "type": "Feature", "properties": { "id": "219", "layer": 0 }, "geometry": { "type": "Point", "coordinates": [ 13.3752, 52.50574 ] } },
{ "type": "Feature", "properties": { "id": "315", "layer": 0 }, "geometry": { "type": "Point", "coordinates": [ 13.439209, 52.532798 ] } },
{ "type": "Feature", "properties": { "id": "380", "layer": 0 }, "geometry": { "type": "Point", "coordinates": [ 13.415074, 52.493102 ] } },
{ "type": "Feature", "properties": { "id": "82", "layer": 0 }, "geometry": { "type": "Point", "coordinates": [ 13.425915, 52.496058 ] } },
{ "type": "Feature", "properties": { "id": "45", "layer": 0 }, "geometry": { "type": "Point", "coordinates": [ 13.422253, 52.490709 ] } },
{ "type": "Feature", "properties": { "id": "166", "layer": 0 }, "geometry": { "type": "Point", "coordinates": [ 13.388208, 52.486559 ] } },
{ "type": "Feature", "properties": { "id": "36", "layer": 0 }, "geometry": { "type": "Point", "coordinates": [ 13.411662, 52.523016 ] } },
{ "type": "Feature", "properties": { "id": "363", "layer": 0 }, "geometry": { "type": "Point", "coordinates": [ 13.409967, 52.520686 ] } },
{ "type": "Feature", "properties": { "id": "8", "layer": 0 }, "geometry": { "type": "Point", "coordinates": [ 13.466519, 52.530143 ] } },
{ "type": "Feature", "properties": { "id": "192", "layer": 0 }, "geometry": { "type": "Point", "coordinates": [ 13.436736, 52.495635 ] } },
{ "type": "Feature", "properties": { "id": "382", "layer": 0 }, "geometry": { "type": "Point", "coordinates": [ 13.390296, 52.540235 ] } },
{ "type": "Feature", "properties": { "id": "170", "layer": 0 }, "geometry": { "type": "Point", "coordinates": [ 13.414201, 52.487489 ] } },
{ "type": "Feature", "properties": { "id": "388", "layer": 0 }, "geometry": { "type": "Point", "coordinates": [ 13.490001, 52.491187 ] } },
{ "type": "Feature", "properties": { "id": "66", "layer": 0 }, "geometry": { "type": "Point", "coordinates": [ 13.347498, 52.538916 ] } },
{ "type": "Feature", "properties": { "id": "110", "layer": 0 }, "geometry": { "type": "Point", "coordinates": [ 13.397605, 52.536561 ] } },
{ "type": "Feature", "properties": { "id": "12", "layer": 0 }, "geometry": { "type": "Point", "coordinates": [ 13.465543, 52.53261 ] } },
{ "type": "Feature", "properties": { "id": "132", "layer": 0 }, "geometry": { "type": "Point", "coordinates": [ 13.335992, 52.489373 ] } },
{ "type": "Feature", "properties": { "id": "57", "layer": 0 }, "geometry": { "type": "Point", "coordinates": [ 13.403847, 52.478368 ] } },
{ "type": "Feature", "properties": { "id": "376", "layer": 0 }, "geometry": { "type": "Point", "coordinates": [ 13.452779, 52.549602 ] } },
{ "type": "Feature", "properties": { "id": "290", "layer": 0 }, "geometry": { "type": "Point", "coordinates": [ 13.486758, 52.514088 ] } },
{ "type": "Feature", "properties": { "id": "257", "layer": 0 }, "geometry": { "type": "Point", "coordinates": [ 13.451601, 52.52502 ] } },
{ "type": "Feature", "properties": { "id": "358", "layer": 0 }, "geometry": { "type": "Point", "coordinates": [ 13.471526, 52.530649 ] } },
{ "type": "Feature", "properties": { "id": "309", "layer": 0 }, "geometry": { "type": "Point", "coordinates": [ 13.447654, 52.520943 ] } },
{ "type": "Feature", "properties": { "id": "95", "layer": 0 }, "geometry": { "type": "Point", "coordinates": [ 13.364922, 52.481582 ] } },
{ "type": "Feature", "properties": { "id": "209", "layer": 0 }, "geometry": { "type": "Point", "coordinates": [ 13.340352, 52.506859 ] } },
{ "type": "Feature", "properties": { "id": "250", "layer": 0 }, "geometry": { "type": "Point", "coordinates": [ 13.405249, 52.525409 ] } },
{ "type": "Feature", "properties": { "id": "201", "layer": 0 }, "geometry": { "type": "Point", "coordinates": [ 13.41926, 52.478468 ] } },
{ "type": "Feature", "properties": { "id": "225", "layer": 0 }, "geometry": { "type": "Point", "coordinates": [ 13.419164, 52.490133 ] } },
{ "type": "Feature", "properties": { "id": "337", "layer": 0 }, "geometry": { "type": "Point", "coordinates": [ 13.365339, 52.542166 ] } },
{ "type": "Feature", "properties": { "id": "75", "layer": 0 }, "geometry": { "type": "Point", "coordinates": [ 13.331139, 52.489786 ] } },
{ "type": "Feature", "properties": { "id": "244", "layer": 0 }, "geometry": { "type": "Point", "coordinates": [ 13.476091, 52.507622 ] } },
{ "type": "Feature", "properties": { "id": "121", "layer": 0 }, "geometry": { "type": "Point", "coordinates": [ 13.401115, 52.489946 ] } },
{ "type": "Feature", "properties": { "id": "279", "layer": 0 }, "geometry": { "type": "Point", "coordinates": [ 13.409881, 52.516186 ] } },
{ "type": "Feature", "properties": { "id": "106", "layer": 0 }, "geometry": { "type": "Point", "coordinates": [ 13.398146, 52.491098 ] } },
{ "type": "Feature", "properties": { "id": "148", "layer": 0 }, "geometry": { "type": "Point", "coordinates": [ 13.378929, 52.526702 ] } },
{ "type": "Feature", "properties": { "id": "105", "layer": 0 }, "geometry": { "type": "Point", "coordinates": [ 13.457923, 52.488235 ] } },
{ "type": "Feature", "properties": { "id": "393", "layer": 0 }, "geometry": { "type": "Point", "coordinates": [ 13.339421, 52.526244 ] } },
{ "type": "Feature", "properties": { "id": "197", "layer": 0 }, "geometry": { "type": "Point", "coordinates": [ 13.403761, 52.507764 ] } },
{ "type": "Feature", "properties": { "id": "103", "layer": 0 }, "geometry": { "type": "Point", "coordinates": [ 13.351327, 52.509273 ] } },
{ "type": "Feature", "properties": { "id": "372", "layer": 0 }, "geometry": { "type": "Point", "coordinates": [ 13.419076, 52.498188 ] } },
{ "type": "Feature", "properties": { "id": "147", "layer": 0 }, "geometry": { "type": "Point", "coordinates": [ 13.362723, 52.545076 ] } },
{ "type": "Feature", "properties": { "id": "239", "layer": 0 }, "geometry": { "type": "Point", "coordinates": [ 13.363184, 52.497577 ] } },
{ "type": "Feature", "properties": { "id": "103", "layer": 0 }, "geometry": { "type": "Point", "coordinates": [ 13.391389, 52.500831 ] } },
{ "type": "Feature", "properties": { "id": "213", "layer": 0 }, "geometry": { "type": "Point", "coordinates": [ 13.396845, 52.537467 ] } },
{ "type": "Feature", "properties": { "id": "283", "layer": 0 }, "geometry": { "type": "Point", "coordinates": [ 13.346965, 52.483466 ] } },
{ "type": "Feature", "properties": { "id": "169", "layer": 0 }, "geometry": { "type": "Point", "coordinates": [ 13.395993, 52.504429 ] } },
{ "type": "Feature", "properties": { "id": "108", "layer": 0 }, "geometry": { "type": "Point", "coordinates": [ 13.473762, 52.505845 ] } },
{ "type": "Feature", "properties": { "id": "208", "layer": 0 }, "geometry": { "type": "Point", "coordinates": [ 13.489833, 52.487402 ] } },
{ "type": "Feature", "properties": { "id": "157", "layer": 0 }, "geometry": { "type": "Point", "coordinates": [ 13.379755, 52.517977 ] } },
{ "type": "Feature", "properties": { "id": "272", "layer": 0 }, "geometry": { "type": "Point", "coordinates": [ 13.487873, 52.542552 ] } },
{ "type": "Feature", "properties": { "id": "121", "layer": 0 }, "geometry": { "type": "Point", "coordinates": [ 13.354707, 52.487626 ] } },
{ "type": "Feature", "properties": { "id": "27", "layer": 0 }, "geometry": { "type": "Point", "coordinates": [ 13.420412, 52.495626 ] } },
{ "type": "Feature", "properties": { "id": "338", "layer": 0 }, "geometry": { "type": "Point", "coordinates": [ 13.34982, 52.495752 ] } },
{ "type": "Feature", "properties": { "id": "299", "layer": 0 }, "geometry": { "type": "Point", "coordinates": [ 13.386647, 52.526016 ] } },
{ "type": "Feature", "properties": { "id": "252", "layer": 0 }, "geometry": { "type": "Point", "coordinates": [ 13.427799, 52.507713 ] } },
{ "type": "Feature", "properties": { "id": "383", "layer": 0 }, "geometry": { "type": "Point", "coordinates": [ 13.345141, 52.520722 ] } },
{ "type": "Feature", "properties": { "id": "385", "layer": 0 }, "geometry": { "type": "Point", "coordinates": [ 13.420948, 52.488917 ] } },
{ "type": "Feature", "properties": { "id": "388", "layer": 0 }, "geometry": { "type": "Point", "coordinates": [ 13.328611, 52.493005 ] } },
{ "type": "Feature", "properties": { "id": "331", "layer": 0 }, "geometry": { "type": "Point", "coordinates": [ 13.463272, 52.507016 ] } },
{ "type": "Feature", "properties": { "id": "152", "layer": 0 }, "geometry": { "type": "Point", "coordinates": [ 13.337817, 52.536083 ] } },
{ "type": "Feature", "properties": { "id": "235", "layer": 0 }, "geometry": { "type": "Point", "coordinates": [ 13.331816, 52.509376 ] } },
{ "type": "Feature", "properties": { "id": "299", "layer": 0 }, "geometry": { "type": "Point", "coordinates": [ 13.392901, 52.547372 ] } },
{ "type": "Feature", "properties": { "id": "129", "layer": 0 }, "geometry": { "type": "Point", "coordinates": [ 13.427182, 52.544894 ] } },
{ "type": "Feature", "properties": { "id": "384", "layer": 0 }, "geometry": { "type": "Point", "coordinates": [ 13.385013, 52.534214 ] } },
{ "type": "Feature", "properties": { "id": "119", "layer": 0 }, "geometry": { "type": "Point", "coordinates": [ 13.412049, 52.541082 ] } },
{ "type": "Feature", "properties": { "id": "43", "layer": 0 }, "geometry": { "type": "Point", "coordinates": [ 13.395958, 52.497052 ] } },
{ "type": "Feature", "properties": { "id": "375", "layer": 0 }, "geometry": { "type": "Point", "coordinates": [ 13.419762, 52.533273 ] } },
{ "type": "Feature", "properties": { "id": "296", "layer": 0 }, "geometry": { "type": "Point", "coordinates": [ 13.33289, 52.525591 ] } },
{ "type": "Feature", "properties": { "id": "274", "layer": 0 }, "geometry": { "type": "Point", "coordinates": [ 13.471164, 52.52266 ] } },
{ "type": "Feature", "properties": { "id": "183", "layer": 0 }, "geometry": { "type": "Point", "coordinates": [ 13.393066, 52.503537 ] } },
{ "type": "Feature", "properties": { "id": "4", "layer": 0 }, "geometry": { "type": "Point", "coordinates": [ 13.477844, 52.524827 ] } },
{ "type": "Feature", "properties": { "id": "268", "layer": 0 }, "geometry": { "type": "Point", "coordinates": [ 13.375892, 52.531716 ] } },
{ "type": "Feature", "properties": { "id": "359", "layer": 0 }, "geometry": { "type": "Point", "coordinates": [ 13.363254, 52.52136 ] } },
{ "type": "Feature", "properties": { "id": "118", "layer": 0 }, "geometry": { "type": "Point", "coordinates": [ 13.482464, 52.492521 ] } },
{ "type": "Feature", "properties": { "id": "4", "layer": 0 }, "geometry": { "type": "Point", "coordinates": [ 13.328738, 52.48784 ] } },
{ "type": "Feature", "properties": { "id": "295", "layer": 0 }, "geometry": { "type": "Point", "coordinates": [ 13.386175, 52.53002 ] } },
{ "type": "Feature", "properties": { "id": "347", "layer": 0 }, "geometry": { "type": "Point", "coordinates": [ 13.46588, 52.505896 ] } },
{ "type": "Feature", "properties": { "id": "138", "layer": 0 }, "geometry": { "type": "Point", "coordinates": [ 13.408831, 52.488812 ] } },
{ "type": "Feature", "properties": { "id": "23", "layer": 0 }, "geometry": { "type": "Point", "coordinates": [ 13.350184, 52.494381 ] } },
{ "type": "Feature", "properties": { "id": "142", "layer": 0 }, "geometry": { "type": "Point", "coordinates": [ 13.381863, 52.477634 ] } },
{ "type": "Feature", "properties": { "id": "167", "layer": 0 }, "geometry": { "type": "Point", "coordinates": [ 13.371918, 52.48516 ] } },
{ "type": "Feature", "properties": { "id": "327", "layer": 0 }, "geometry": { "type": "Point", "coordinates": [ 13.45695, 52.516344 ] } },
{ "type": "Feature", "properties": { "id": "398", "layer": 0 }, "geometry": { "type": "Point", "coordinates": [ 13.439949, 52.544079 ] } },
{ "type": "Feature", "properties": { "id": "228", "layer": 0 }, "geometry": { "type": "Point", "coordinates": [ 13.463859, 52.491361 ] } },
{ "type": "Feature", "properties": { "id": "292", "layer": 0 }, "geometry": { "type": "Point", "coordinates": [ 13.393522, 52.514221 ] } },
{ "type": "Feature", "properties": { "id": "358", "layer": 0 }, "geometry": { "type": "Point", "coordinates": [ 13.349179, 52.520085 ] } }
]
}
