{
"type": "FeatureCollection",
"name": "berlin_combined",
"crs": { "type": "name", "properties": { "name": "urn:ogc:def:crs:OGC:1.3:CRS84" } },
"features": [
{ "type": "Feature", "properties": { "id": "0", "layer": 0 }, "geometry": { "type": "Point", "coordinates": [ 13.391616, 52.49682 ] } },
{ "type": "Feature", "properties": { "id": "1", "layer": 0 }, "geometry": { "type": "Point", "coordinates": [ 13.45305, 52.529721 ] } },
{ "type": "Feature", "properties": { "id": "2", "layer": 0 }, "geometry": { "type": "Point", "coordinates": [ 13.401465, 52.541038 ] } },
{ "type": "Feature", "properties": { "id": "3", "layer": 0 }, "geometry": { "type": "Point", "coordinates": [ 13.393943, 52.485753 ] } },
{ "type": "Feature", "properties": { "id": "4", "layer": 0 }, "geometry": { "type": "Point", "coordinates": [ 13.477844, 52.524827 ] } },
{ "type": "Feature", "properties": { "id": "5", "layer": 0 }, "geometry": { "type": "Point", "coordinates": [ 13.489981, 52.500677 ] } },
{ "type": "Feature", "properties": { "id": "6", "layer": 0 }, "geometry": { "type": "Point", "coordinates": [ 13.445988, 52.520292 ] } },
{ "type": "Feature", "properties": { "id": "7", "layer": 0 }, "geometry": { "type": "Point", "coordinates": [ 13.464316, 52.504728 ] } },
{ "type": "Feature", "properties": { "id": "8", "layer": 0 }, "geometry": { "type": "Point", "coordinates": [ 13.437328, 52.488615 ] } },
{ "type": "Feature", "properties": { "id": "9", "layer": 0 }, "geometry": { "type": "Point", "coordinates": [ 13.442205, 52.527454 ] } },
{ "type": "Feature", "properties": { "id": "10", "layer": 0 }, "geometry": { "type": "Point", "coordinates": [ 13.466128, 52.54003 ] } },
{ "type": "Feature", "properties": { "id": "11", "layer": 0 }, "geometry": { "type": "Point", "coordinates": [ 13.405412, 52.520684 ] } },
{ "type": "Feature", "properties": { "id": "12", "layer": 0 }, "geometry": { "type": "Point", "coordinates": [ 13.465543, 52.53261 ] } },
{ "type": "Feature", "properties": { "id": "13", "layer": 0 }, "geometry": { "type": "Point", "coordinates": [ 13.455237, 52.5449 ] } },
{ "type": "Feature", "properties": { "id": "14", "layer": 0 }, "geometry": { "type": "Point", "coordinates": [ 13.421535, 52.536513 ] } },
{ "type": "Feature", "properties": { "id": "15", "layer": 0 }, "geometry": { "type": "Point", "coordinates": [ 13.45819, 52.489327 ] } },
{ "type": "Feature", "properties": { "id": "16", "layer": 0 }, "geometry": { "type": "Point", "coordinates": [ 13.367775, 52.504821 ] } },
{ "type": "Feature", "properties": { "id": "17", "layer": 0 }, "geometry": { "type": "Point", "coordinates": [ 13.417583, 52.521436 ] } },
{ "type": "Feature", "properties": { "id": "18", "layer": 0 }, "geometry": { "type": "Point", "coordinates": [ 13.3359, 52.487687 ] } },
{ "type": "Feature", "properties": { "id": "19", "layer": 0 }, "geometry": { "type": "Point", "coordinates": [ 13.348316, 52.548907 ] } },
{ "type": "Feature", "properties": { "id": "20", "layer": 0 }, "geometry": { "type": "Point", "coordinates": [ 13.463748, 52.508314 ] } },
{ "type": "Feature", "properties": { "id": "21", "layer": 0 }, "geometry": { "type": "Point", "coordinates": [ 13.442539, 52.543228 ] } },
{ "type": "Feature", "properties": { "id": "22", "layer": 0 }, "geometry": { "type": "Point", "coordinates": [ 13.460624, 52.4777 ] } },
{ "type": "Feature", "properties": { "id": "23", "layer": 0 }, "geometry": { "type": "Point", "coordinates": [ 13.350184, 52.494381 ] } },
{ "type": "Feature", "properties": { "id": "24", "layer": 0 }, "geometry": { "type": "Point", "coordinates": [ 13.407616, 52.501924 ] } },
{ "type": "Feature", "properties": { "id": "25", "layer": 0 }, "geometry": { "type": "Point", "coordinates": [ 13.490394, 52.480288 ] } },
{ "type": "Feature", "properties": { "id": "26", "layer": 0 }, "geometry": { "type": "Point", "coordinates": [ 13.398991, 52.495214 ] } },
{ "type": "Feature", "properties": { "id": "27", "layer": 0 }, "geometry": { "type": "Point", "coordinates": [ 13.473095, 52.515573 ] } },
{ "type": "Feature", "properties": { "id": "28", "layer": 0 }, "geometry": { "type": "Point", "coordinates": [ 13.476722, 52.531632 ] } },
{ "type": "Feature", "properties": { "id": "29", "layer": 0 }, "geometry": { "type": "Point", "coordinates": [ 13.408055, 52.505253 ] } },
{ "type": "Feature", "properties": { "id": "30", "layer": 0 }, "geometry": { "type": "Point", "coordinates": [ 13.422343, 52.545897 ] } },
{ "type": "Feature", "properties": { "id": "31", "layer": 0 }, "geometry": { "type": "Point", "coordinates": [ 13.359097, 52.507522 ] } },
{ "type": "Feature", "properties": { "id": "32", "layer": 0 }, "geometry": { "type": "Point", "coordinates": [ 13.381704, 52.489236 ] } },
{ "type": "Feature", "properties": { "id": "33", "layer": 0 }, "geometry": { "type": "Point", "coordinates": [ 13.430838, 52.531396 ] } },
{ "type": "Feature", "properties": { "id": "34", "layer": 0 }, "geometry": { "type": "Point", "coordinates": [ 13.455841, 52.501855 ] } },
{ "type": "Feature", "properties": { "id": "35", "layer": 0 }, "geometry": { "type": "Point", "coordinates": [ 13.425041, 52.484539 ] } },
{ "type": "Feature", "properties": { "id": "36", "layer": 0 }, "geometry": { "type": "Point", "coordinates": [ 13.415048, 52.533611 ] } },
{ "type": "Feature", "properties": { "id": "37", "layer": 0 }, "geometry": { "type": "Point", "coordinates": [ 13.378772, 52.494383 ] } },
{ "type": "Feature", "properties": { "id": "38", "layer": 0 }, "geometry": { "type": "Point", "coordinates": [ 13.392869, 52.514436 ] } },
{ "type": "Feature", "properties": { "id": "39", "layer": 0 }, "geometry": { "type": "Point", "coordinates": [ 13.452258, 52.499855 ] } },
{ "type": "Feature", "properties": { "id": "40", "layer": 0 }, "geometry": { "type": "Point", "coordinates": [ 13.401808, 52.528886 ] } },
{ "type": "Feature", "properties": { "id": "41", "layer": 0 }, "geometry": { "type": "Point", "coordinates": [ 13.366201, 52.51003 ] } },
{ "type": "Feature", "properties": { "id": "42", "layer": 0 }, "geometry": { "type": "Point", "coordinates": [ 13.478906, 52.507578 ] } },
{ "type": "Feature", "properties": { "id": "43", "layer": 0 }, "geometry": { "type": "Point", "coordinates": [ 13.478163, 52.491413 ] } },
{ "type": "Feature", "properties": { "id": "44", "layer": 0 }, "geometry": { "type": "Point", "coordinates": [ 13.343095, 52.502783 ] } },
{ "type": "Feature", "properties": { "id": "45", "layer": 0 }, "geometry": { "type": "Point", "coordinates": [ 13.422253, 52.490709 ] } },
{ "type": "Feature", "properties": { "id": "46", "layer": 0 }, "geometry": { "type": "Point", "coordinates": [ 13.354053, 52.538898 ] } },
{ "type": "Feature", "properties": { "id": "47", "layer": 0 }, "geometry": { "type": "Point", "coordinates": [ 13.471019, 52.527861 ] } },
{ "type": "Feature", "properties": { "id": "48", "layer": 0 }, "geometry": { "type": "Point", "coordinates": [ 13.471954, 52.526506 ] } },
{ "type": "Feature", "properties": { "id": "49", "layer": 0 }, "geometry": { "type": "Point", "coordinates": [ 13.443348, 52.497674 ] } },
{ "type": "Feature", "properties": { "id": "50", "layer": 0 }, "geometry": { "type": "Point", "coordinates": [ 13.366024, 52.514039 ] } },
{ "type": "Feature", "properties": { "id": "51", "layer": 0 }, "geometry": { "type": "Point", "coordinates": [ 13.486958, 52.506506 ] } },
{ "type": "Feature", "properties": { "id": "52", "layer": 0 }, "geometry": { "type": "Point", "coordinates": [ 13.473997, 52.487798 ] } },
{ "type": "Feature", "properties": { "id": "53", "layer": 0 }, "geometry": { "type": "Point", "coordinates": [ 13.463722, 52.534907 ] } },
{ "type": "Feature", "properties": { "id": "54", "layer": 0 }, "geometry": { "type": "Point", "coordinates": [ 13.348815, 52.487862 ] } },
{ "type": "Feature", "properties": { "id": "55", "layer": 0 }, "geometry": { "type": "Point", "coordinates": [ 13.350957, 52.492792 ] } },
{ "type": "Feature", "properties": { "id": "56", "layer": 0 }, "geometry": { "type": "Point", "coordinates": [ 13.402008, 52.520922 ] } },
{ "type": "Feature", "properties": { "id": "57", "layer": 0 }, "geometry": { "type": "Point", "coordinates": [ 13.357132, 52.514692 ] } },
{ "type": "Feature", "properties": { "id": "58", "layer": 0 }, "geometry": { "type": "Point", "coordinates": [ 13.344738, 52.522534 ] } },
{ "type": "Feature", "properties": { "id": "59", "layer": 0 }, "geometry": { "type": "Point", "coordinates": [ 13.475082, 52.524992 ] } },
{ "type": "Feature", "properties": { "id": "60", "layer": 0 }, "geometry": { "type": "Point", "coordinates": [ 13.460182, 52.532628 ] } },
{ "type": "Feature", "properties": { "id": "61", "layer": 0 }, "geometry": { "type": "Point", "coordinates": [ 13.427556, 52.496808 ] } },
{ "type": "Feature", "properties": { "id": "62", "layer": 0 }, "geometry": { "type": "Point", "coordinates": [ 13.416214, 52.547972 ] } },
{ "type": "Feature", "properties": { "id": "63", "layer": 0 }, "geometry": { "type": "Point", "coordinates": [ 13.405541, 52.491804 ] } },
{ "type": "Feature", "properties": { "id": "64", "layer": 0 }, "geometry": { "type": "Point", "coordinates": [ 13.435317, 52.54092 ] } },
{ "type": "Feature", "properties": { "id": "65", "layer": 0 }, "geometry": { "type": "Point", "coordinates": [ 13.470414, 52.493354 ] } },
{ "type": "Feature", "properties": { "id": "66", "layer": 0 }, "geometry": { "type": "Point", "coordinates": [ 13.481588, 52.492951 ] } },
{ "type": "Feature", "properties": { "id": "67", "layer": 0 }, "geometry": { "type": "Point", "coordinates": [ 13.47828, 52.510399 ] } },
{ "type": "Feature", "properties": { "id": "68", "layer": 0 }, "geometry": { "type": "Point", "coordinates": [ 13.332277, 52.510752 ] } },
{ "type": "Feature", "properties": { "id": "69", "layer": 0 }, "geometry": { "type": "Point", "coordinates": [ 13.335324, 52.487601 ] } },
{ "type": "Feature", "properties": { "id": "70", "layer": 0 }, "geometry": { "type": "Point", "coordinates": [ 13.414629, 52.549895 ] } },
{ "type": "Feature", "properties": { "id": "71", "layer": 0 }, "geometry": { "type": "Point", "coordinates": [ 13.392573, 52.548241 ] } },
{ "type": "Feature", "properties": { "id": "72", "layer": 0 }, "geometry": { "type": "Point", "coordinates": [ 13.4231, 52.545526 ] } },
{ "type": "Feature", "properties": { "id": "73", "layer": 0 }, "geometry": { "type": "Point", "coordinates": [ 13.368496, 52.527415 ] } },
{ "type": "Feature", "properties": { "id": "74", "layer": 0 }, "geometry": { "type": "Point", "coordinates": [ 13.442539, 52.5343 ] } },
{ "type": "Feature", "properties": { "id": "75", "layer": 0 }, "geometry": { "type": "Point", "coordinates": [ 13.379335, 52.535528 ] } },
{ "type": "Feature", "properties": { "id": "76", "layer": 0 }, "geometry": { "type": "Point", "coordinates": [ 13.422793, 52.485162 ] } },
{ "type": "Feature", "properties": { "id": "77", "layer": 0 }, "geometry": { "type": "Point", "coordinates": [ 13.468497, 52.525999 ] } },
{ "type": "Feature", "properties": { "id": "78", "layer": 0 }, "geometry": { "type": "Point", "coordinates": [ 13.428662, 52.498754 ] } },
{ "type": "Feature", "properties": { "id": "79", "layer": 0 }, "geometry": { "type": "Point", "coordinates": [ 13.452606, 52.499086 ] } },
{ "type": "Feature", "properties": { "id": "80", "layer": 0 }, "geometry": { "type": "Point", "coordinates": [ 13.350706, 52.535255 ] } },
{ "type": "Feature", "properties": { "id": "81", "layer": 0 }, "geometry": { "type": "Point", "coordinates": [ 13.412435, 52.509889 ] } },
{ "type": "Feature", "properties": { "id": "82", "layer": 0 }, "geometry": { "type": "Point", "coordinates": [ 13.425915, 52.496058 ] } },
{ "type": "Feature", "properties": { "id": "83", "layer": 0 }, "geometry": { "type": "Point", "coordinates": [ 13.461587, 52.530629 ] } },
{ "type": "Feature", "properties": { "id": "84", "layer": 0 }, "geometry": { "type": "Point", "coordinates": [ 13.488211, 52.528117 ] } },
{ "type": "Feature", "properties": { "id": "85", "layer": 0 }, "geometry": { "type": "Point", "coordinates": [ 13.400549, 52.511411 ] } },
{ "type": "Feature", "properties": { "id": "86", "layer": 0 }, "geometry": { "type": "Point", "coordinates": [ 13.399247, 52.510963 ] } },
{ "type": "Feature", "properties": { "id": "87", "layer": 0 }, "geometry": { "type": "Point", "coordinates": [ 13.34773, 52.53684 ] } },
{ "type": "Feature", "properties": { "id": "88", "layer": 0 }, "geometry": { "type": "Point", "coordinates": [ 13.356071, 52.491615 ] } },
{ "type": "Feature", "properties": { "id": "89", "layer": 0 }, "geometry": { "type": "Point", "coordinates": [ 13.421371, 52.492922 ] } },
{ "type": "Feature", "properties": { "id": "90", "layer": 0 }, "geometry": { "type": "Point", "coordinates": [ 13.374981, 52.524746 ] } },
{ "type": "Feature", "properties": { "id": "91", "layer": 0 }, "geometry": { "type": "Point", "coordinates": [ 13.458121, 52.486956 ] } },
{ "type": "Feature", "properties": { "id": "92", "layer": 0 }, "geometry": { "type": "Point", "coordinates": [ 13.405142, 52.523972 ] } },
{ "type": "Feature", "properties": { "id": "93", "layer": 0 }, "geometry": { "type": "Point", "coordinates": [ 13.451124, 52.522066 ] } },
{ "type": "Feature", "properties": { "id": "94", "layer": 0 }, "geometry": { "type": "Point", "coordinates": [ 13.415698, 52.508137 ] } },
{ "type": "Feature", "properties": { "id": "95", "layer": 0 }, "geometry": { "type": "Point", "coordinates": [ 13.428013, 52.505048 ] } },
{ "type": "Feature", "properties": { "id": "96", "layer": 0 }, "geometry": { "type": "Point", "coordinates": [ 13.348131, 52.49064 ] } },
{ "type": "Feature", "properties": { "id": "97", "layer": 0 }, "geometry": { "type": "Point", "coordinates": [ 13.495877, 52.500254 ] } },
{ "type": "Feature", "properties": { "id": "98", "layer": 0 }, "geometry": { "type": "Point", "coordinates": [ 13.346982, 52.511759 ] } },
{ "type": "Feature", "properties": { "id": "99", "layer": 0 }, "geometry": { "type": "Point", "coordinates": [ 13.41182, 52.501658 ] } },
{ "type": "Feature", "properties": { "id": "100", "layer": 0 }, "geometry": { "type": "Point", "coordinates": [ 13.419963, 52.501006 ] } },
{ "type": "Feature", "properties": { "id": "101", "layer": 0 }, "geometry": { "type": "Point", "coordinates": [ 13.402956, 52.535292 ] } },
{ "type": "Feature", "properties": { "id": "102", "layer": 0 }, "geometry": { "type": "Point", "coordinates": [ 13.361258, 52.530506 ] } },
{ "type": "Feature", "properties": { "id": "103", "layer": 0 }, "geometry": { "type": "Point", "coordinates": [ 13.391389, 52.500831 ] } },
{ "type": "Feature", "properties": { "id": "104", "layer": 0 }, "geometry": { "type": "Point", "coordinates": [ 13.381361, 52.54542 ] } },
{ "type": "Feature", "properties": { "id": "105", "layer": 0 }, "geometry": { "type": "Point", "coordinates": [ 13.457923, 52.488235 ] } },
{ "type": "Feature", "properties": { "id": "106", "layer": 0 }, "geometry": { "type": "Point", "coordinates": [ 13.445618, 52.513938 ] } },
{ "type": "Feature", "properties": { "id": "107", "layer": 0 }, "geometry": { "type": "Point", "coordinates": [ 13.416356, 52.491137 ] } },
{ "type": "Feature", "properties": { "id": "108", "layer": 0 }, "geometry": { "type": "Point", "coordinates": [ 13.437226, 52.547758 ] } },
{ "type": "Feature", "properties": { "id": "109", "layer": 0 }, "geometry": { "type": "Point", "coordinates": [ 13.487581, 52.519714 ] } },
{ "type": "Feature", "properties": { "id": "110", "layer": 0 }, "geometry": { "type": "Point", "coordinates": [ 13.397605, 52.536561 ] } },
{ "type": "Feature", "properties": { "id": "111", "layer": 0 }, "geometry": { "type": "Point", "coordinates": [ 13.413607, 52.502368 ] } },
{ "type": "Feature", "properties": { "id": "112", "layer": 0 }, "geometry": { "type": "Point", "coordinates": [ 13.415795, 52.482445 ] } },
{ "type": "Feature", "properties": { "id": "113", "layer": 0 }, "geometry": { "type": "Point", "coordinates": [ 13.39318, 52.521514 ] } },
{ "type": "Feature", "properties": { "id": "114", "layer": 0 }, "geometry": { "type": "Point", "coordinates": [ 13.336797, 52.536555 ] } },
{ "type": "Feature", "properties": { "id": "115", "layer": 0 }, "geometry": { "type": "Point", "coordinates": [ 13.468583, 52.477853 ] } },
{ "type": "Feature", "properties": { "id": "116", "layer": 0 }, "geometry": { "type": "Point", "coordinates": [ 13.423986, 52.518095 ] } },
{ "type": "Feature", "properties": { "id": "117", "layer": 0 }, "geometry": { "type": "Point", "coordinates": [ 13.409943, 52.52009 ] } },
{ "type": "Feature", "properties": { "id": "118", "layer": 0 }, "geometry": { "type": "Point", "coordinates": [ 13.482464, 52.492521 ] } },
{ "type": "Feature", "properties": { "id": "119", "layer": 0 }, "geometry": { "type": "Point", "coordinates": [ 13.359991, 52.521149 ] } },
{ "type": "Feature", "properties": { "id": "120", "layer": 0 }, "geometry": { "type": "Point", "coordinates": [ 13.377559, 52.507021 ] } },
{ "type": "Feature", "properties": { "id": "121", "layer": 0 }, "geometry": { "type": "Point", "coordinates": [ 13.401115, 52.489946 ] } },
{ "type": "Feature", "properties": { "id": "122", "layer": 0 }, "geometry": { "type": "Point", "coordinates": [ 13.341924, 52.534076 ] } },
{ "type": "Feature", "properties": { "id": "123", "layer": 0 }, "geometry": { "type": "Point", "coordinates": [ 13.475344, 52.528818 ] } },
{ "type": "Feature", "properties": { "id": "124", "layer": 0 }, "geometry": { "type": "Point", "coordinates": [ 13.45937, 52.548209 ] } },
{ "type": "Feature", "properties": { "id": "125", "layer": 0 }, "geometry": { "type": "Point", "coordinates": [ 13.454116, 52.503043 ] } },
{ "type": "Feature", "properties": { "id": "126", "layer": 0 }, "geometry": { "type": "Point", "coordinates": [ 13.34055, 52.48515 ] } },
{ "type": "Feature", "properties": { "id": "127", "layer": 0 }, "geometry": { "type": "Point", "coordinates": [ 13.430801, 52.493087 ] } },
{ "type": "Feature", "properties": { "id": "128", "layer": 0 }, "geometry": { "type": "Point", "coordinates": [ 13.336052, 52.489322 ] } },
{ "type": "Feature", "properties": { "id": "129", "layer": 0 }, "geometry": { "type": "Point", "coordinates": [ 13.427182, 52.544894 ] } },
{ "type": "Feature", "properties": { "id": "130", "layer": 0 }, "geometry": { "type": "Point", "coordinates": [ 13.435727, 52.5122 ] } },
{ "type": "Feature", "properties": { "id": "131", "layer": 0 }, "geometry": { "type": "Point", "coordinates": [ 13.464415, 52.53007 ] } },
{ "type": "Feature", "properties": { "id": "132", "layer": 0 }, "geometry": { "type": "Point", "coordinates": [ 13.335992, 52.489373 ] } },
{ "type": "Feature", "properties": { "id": "133", "layer": 0 }, "geometry": { "type": "Point", "coordinates": [ 13.444958, 52.503004 ] } },
{ "type": "Feature", "properties": { "id": "134", "layer": 0 }, "geometry": { "type": "Point", "coordinates": [ 13.480738, 52.519417 ] } },
{ "type": "Feature", "properties": { "id": "135", "layer": 0 }, "geometry": { "type": "Point", "coordinates": [ 13.342318, 52.491902 ] } },
{ "type": "Feature", "properties": { "id": "136", "layer": 0 }, "geometry": { "type": "Point", "coordinates": [ 13.478913, 52.540218 ] } },
{ "type": "Feature", "properties": { "id": "137", "layer": 0 }, "geometry": { "type": "Point", "coordinates": [ 13.455829, 52.517082 ] } },
{ "type": "Feature", "properties": { "id": "138", "layer": 0 }, "geometry": { "type": "Point", "coordinates": [ 13.402383, 52.539801 ] } },
{ "type": "Feature", "properties": { "id": "139", "layer": 0 }, "geometry": { "type": "Point", "coordinates": [ 13.385569, 52.538528 ] } },
{ "type": "Feature", "properties": { "id": "140", "layer": 0 }, "geometry": { "type": "Point", "coordinates": [ 13.428799, 52.487871 ] } },
{ "type": "Feature", "properties": { "id": "141", "layer": 0 }, "geometry": { "type": "Point", "coordinates": [ 13.39973, 52.513309 ] } },
{ "type": "Feature", "properties": { "id": "142", "layer": 0 }, "geometry": { "type": "Point", "coordinates": [ 13.381863, 52.477634 ] } },
{ "type": "Feature", "properties": { "id": "143", "layer": 0 }, "geometry": { "type": "Point", "coordinates": [ 13.332971, 52.479168 ] } },
{ "type": "Feature", "properties": { "id": "144", "layer": 0 }, "geometry": { "type": "Point", "coordinates": [ 13.350214, 52.545118 ] } },
{ "type": "Feature", "properties": { "id": "145", "layer": 0 }, "geometry": { "type": "Point", "coordinates": [ 13.39016, 52.51083 ] } },
{ "type": "Feature", "properties": { "id": "146", "layer": 0 }, "geometry": { "type": "Point", "coordinates": [ 13.346293, 52.525474 ] } },
{ "type": "Feature", "properties": { "id": "147", "layer": 0 }, "geometry": { "type": "Point", "coordinates": [ 13.362723, 52.545076 ] } },
{ "type": "Feature", "properties": { "id": "148", "layer": 0 }, "geometry": { "type": "Point", "coordinates": [ 13.440729, 52.525383 ] } },
{ "type": "Feature", "properties": { "id": "149", "layer": 0 }, "geometry": { "type": "Point", "coordinates": [ 13.487813, 52.515779 ] } },
{ "type": "Feature", "properties": { "id": "150", "layer": 0 }, "geometry": { "type": "Point", "coordinates": [ 13.485487, 52.525083 ] } },
{ "type": "Feature", "properties": { "id": "151", "layer": 0 }, "geometry": { "type": "Point", "coordinates": [ 13.401133, 52.540391 ] } },
{ "type": "Feature", "properties": { "id": "152", "layer": 0 }, "geometry": { "type": "Point", "coordinates": [ 13.369439, 52.47658 ] } },
{ "type": "Feature", "properties": { "id": "153", "layer": 0 }, "geometry": { "type": "Point", "coordinates": [ 13.433442, 52.491179 ] } },
{ "type": "Feature", "properties": { "id": "154", "layer": 0 }, "geometry": { "type": "Point", "coordinates": [ 13.488275, 52.533032 ] } },
{ "type": "Feature", "properties": { "id": "155", "layer": 0 }, "geometry": { "type": "Point", "coordinates": [ 13.35955, 52.497686 ] } },
{ "type": "Feature", "properties": { "id": "156", "layer": 0 }, "geometry": { "type": "Point", "coordinates": [ 13.36238, 52.544876 ] } },
{ "type": "Feature", "properties": { "id": "157", "layer": 0 }, "geometry": { "type": "Point", "coordinates": [ 13.378437, 52.522165 ] } },
{ "type": "Feature", "properties": { "id": "158", "layer": 0 }, "geometry": { "type": "Point", "coordinates": [ 13.336694, 52.535012 ] } },
{ "type": "Feature", "properties": { "id": "159", "layer": 0 }, "geometry": { "type": "Point", "coordinates": [ 13.375011, 52.502569 ] } },
{ "type": "Feature", "properties": { "id": "160", "layer": 0 }, "geometry": { "type": "Point", "coordinates": [ 13.349078, 52.517223 ] } },
{ "type": "Feature", "properties": { "id": "161", "layer": 0 }, "geometry": { "type": "Point", "coordinates": [ 13.35468, 52.528233 ] } },
{ "type": "Feature", "properties": { "id": "162", "layer": 0 }, "geometry": { "type": "Point", "coordinates": [ 13.419668, 52.483471 ] } },
{ "type": "Feature", "properties": { "id": "163", "layer": 0 }, "geometry": { "type": "Point", "coordinates": [ 13.462939, 52.517068 ] } },
{ "type": "Feature", "properties": { "id": "164", "layer": 0 }, "geometry": { "type": "Point", "coordinates": [ 13.470688, 52.535893 ] } },
{ "type": "Feature", "properties": { "id": "165", "layer": 0 }, "geometry": { "type": "Point", "coordinates": [ 13.425802, 52.534149 ] } },
{ "type": "Feature", "properties": { "id": "166", "layer": 0 }, "geometry": { "type": "Point", "coordinates": [ 13.434497, 52.501637 ] } },
{ "type": "Feature", "properties": { "id": "167", "layer": 0 }, "geometry": { "type": "Point", "coordinates": [ 13.370953, 52.509287 ] } },
{ "type": "Feature", "properties": { "id": "168", "layer": 0 }, "geometry": { "type": "Point", "coordinates": [ 13.441463, 52.494733 ] } },
{ "type": "Feature", "properties": { "id": "169", "layer": 0 }, "geometry": { "type": "Point", "coordinates": [ 13.366716, 52.546989 ] } },
{ "type": "Feature", "properties": { "id": "170", "layer": 0 }, "geometry": { "type": "Point", "coordinates": [ 13.414201, 52.487489 ] } },
{ "type": "Feature", "properties": { "id": "171", "layer": 0 }, "geometry": { "type": "Point", "coordinates": [ 13.334985, 52.523094 ] } },
{ "type": "Feature", "properties": { "id": "172", "layer": 0 }, "geometry": { "type": "Point", "coordinates": [ 13.45885, 52.5399 ] } },
{ "type": "Feature", "properties": { "id": "173", "layer": 0 }, "geometry": { "type": "Point", "coordinates": [ 13.469312, 52.502577 ] } },
{ "type": "Feature", "properties": { "id": "174", "layer": 0 }, "geometry": { "type": "Point", "coordinates": [ 13.407189, 52.493318 ] } },
{ "type": "Feature", "properties": { "id": "175", "layer": 0 }, "geometry": { "type": "Point", "coordinates": [ 13.475491, 52.494749 ] } },
{ "type": "Feature", "properties": { "id": "176", "layer": 0 }, "geometry": { "type": "Point", "coordinates": [ 13.362862, 52.516182 ] } },
{ "type": "Feature", "properties": { "id": "177", "layer": 0 }, "geometry": { "type": "Point", "coordinates": [ 13.383677, 52.523612 ] } },
{ "type": "Feature", "properties": { "id": "178", "layer": 0 }, "geometry": { "type": "Point", "coordinates": [ 13.432288, 52.521563 ] } },
{ "type": "Feature", "properties": { "id": "179", "layer": 0 }, "geometry": { "type": "Point", "coordinates": [ 13.394819, 52.495022 ] } },
{ "type": "Feature", "properties": { "id": "180", "layer": 0 }, "geometry": { "type": "Point", "coordinates": [ 13.416398, 52.538214 ] } },
{ "type": "Feature", "properties": { "id": "181", "layer": 0 }, "geometry": { "type": "Point", "coordinates": [ 13.446343, 52.531636 ] } },
{ "type": "Feature", "properties": { "id": "182", "layer": 0 }, "geometry": { "type": "Point", "coordinates": [ 13.415661, 52.496549 ] } },
{ "type": "Feature", "properties": { "id": "183", "layer": 0 }, "geometry": { "type": "Point", "coordinates": [ 13.363186, 52.506609 ] } },
{ "type": "Feature", "properties": { "id": "184", "layer": 0 }, "geometry": { "type": "Point", "coordinates": [ 13.457938, 52.496899 ] } },
{ "type": "Feature", "properties": { "id": "185", "layer": 0 }, "geometry": { "type": "Point", "coordinates": [ 13.398069, 52.526227 ] } },
{ "type": "Feature", "properties": { "id": "186", "layer": 0 }, "geometry": { "type": "Point", "coordinates": [ 13.34203, 52.539068 ] } },
{ "type": "Feature", "properties": { "id": "187", "layer": 0 }, "geometry": { "type": "Point", "coordinates": [ 13.39391, 52.524521 ] } },
{ "type": "Feature", "properties": { "id": "188", "layer": 0 }, "geometry": { "type": "Point", "coordinates": [ 13.371278, 52.514281 ] } },
{ "type": "Feature", "properties": { "id": "189", "layer": 0 }, "geometry": { "type": "Point", "coordinates": [ 13.429361, 52.522859 ] } },
{ "type": "Feature", "properties": { "id": "190", "layer": 0 }, "geometry": { "type": "Point", "coordinates": [ 13.345603, 52.546519 ] } },
{ "type": "Feature", "properties": { "id": "191", "layer": 0 }, "geometry": { "type": "Point", "coordinates": [ 13.416462, 52.513187 ] } },
{ "type": "Feature", "properties": { "id": "192", "layer": 0 }, "geometry": { "type": "Point", "coordinates": [ 13.421981, 52.508231 ] } },
{ "type": "Feature", "properties": { "id": "193", "layer": 0 }, "geometry": { "type": "Point", "coordinates": [ 13.354399, 52.506358 ] } },
{ "type": "Feature", "properties": { "id": "194", "layer": 0 }, "geometry": { "type": "Point", "coordinates": [ 13.417802, 52.529339 ] } },
{ "type": "Feature", "properties": { "id": "195", "layer": 0 }, "geometry": { "type": "Point", "coordinates": [ 13.411277, 52.496603 ] } },
{ "type": "Feature", "properties": { "id": "196", "layer": 0 }, "geometry": { "type": "Point", "coordinates": [ 13.410455, 52.509192 ] } },
{ "type": "Feature", "properties": { "id": "197", "layer": 0 }, "geometry": { "type": "Point", "coordinates": [ 13.403761, 52.507764 ] } },
{ "type": "Feature", "properties": { "id": "198", "layer": 0 }, "geometry": { "type": "Point", "coordinates": [ 13.404501, 52.512259 ] } },
{ "type": "Feature", "properties": { "id": "199", "layer": 0 }, "geometry": { "type": "Point", "coordinates": [ 13.377245, 52.492425 ] } },
{ "type": "Feature", "properties": { "id": "200", "layer": 0 }, "geometry": { "type": "Point", "coordinates": [ 13.384855, 52.516866 ] } },
{ "type": "Feature", "properties": { "id": "201", "layer": 0 }, "geometry": { "type": "Point", "coordinates": [ 13.377207, 52.490798 ] } },
{ "type": "Feature", "properties": { "id": "202", "layer": 0 }, "geometry": { "type": "Point", "coordinates": [ 13.410642, 52.532374 ] } },
{ "type": "Feature", "properties": { "id": "203", "layer": 0 }, "geometry": { "type": "Point", "coordinates": [ 13.410303, 52.532112 ] } },
{ "type": "Feature", "properties": { "id": "204", "layer": 0 }, "geometry": { "type": "Point", "coordinates": [ 13.458641, 52.491367 ] } },
{ "type": "Feature", "properties": { "id": "205", "layer": 0 }, "geometry": { "type": "Point", "coordinates": [ 13.40726, 52.517505 ] } },
{ "type": "Feature", "properties": { "id": "206", "layer": 0 }, "geometry": { "type": "Point", "coordinates": [ 13.409172, 52.494893 ] } },
{ "type": "Feature", "properties": { "id": "207", "layer": 0 }, "geometry": { "type": "Point", "coordinates": [ 13.343019, 52.521904 ] } },
{ "type": "Feature", "properties": { "id": "208", "layer": 0 }, "geometry": { "type": "Point", "coordinates": [ 13.489833, 52.487402 ] } },
{ "type": "Feature", "properties": { "id": "209", "layer": 0 }, "geometry": { "type": "Point", "coordinates": [ 13.340352, 52.506859 ] } },
{ "type": "Feature", "properties": { "id": "210", "layer": 0 }, "geometry": { "type": "Point", "coordinates": [ 13.451733, 52.499267 ] } },
{ "type": "Feature", "properties": { "id": "211", "layer": 0 }, "geometry": { "type": "Point", "coordinates": [ 13.398975, 52.479476 ] } },
{ "type": "Feature", "properties": { "id": "212", "layer": 0 }, "geometry": { "type": "Point", "coordinates": [ 13.400502, 52.517074 ] } },
{ "type": "Feature", "properties": { "id": "213", "layer": 0 }, "geometry": { "type": "Point", "coordinates": [ 13.377726, 52.502346 ] } },
{ "type": "Feature", "properties": { "id": "214", "layer": 0 }, "geometry": { "type": "Point", "coordinates": [ 13.397259, 52.527065 ] } },
{ "type": "Feature", "properties": { "id": "215", "layer": 0 }, "geometry": { "type": "Point", "coordinates": [ 13.48441, 52.520479 ] } },
{ "type": "Feature", "properties": { "id": "216", "layer": 0 }, "geometry": { "type": "Point", "coordinates": [ 13.479647, 52.482519 ] } },
{ "type": "Feature", "properties": { "id": "217", "layer": 0 }, "geometry": { "type": "Point", "coordinates": [ 13.395621, 52.505458 ] } },
{ "type": "Feature", "properties": { "id": "218", "layer": 0 }, "geometry": { "type": "Point", "coordinates": [ 13.345306, 52.534516 ] } },
{ "type": "Feature", "properties": { "id": "219", "layer": 0 }, "geometry": { "type": "Point", "coordinates": [ 13.454588, 52.525771 ] } },
{ "type": "Feature", "properties": { "id": "220", "layer": 0 }, "geometry": { "type": "Point", "coordinates": [ 13.346072, 52.514 ] } },
{ "type": "Feature", "properties": { "id": "221", "layer": 0 }, "geometry": { "type": "Point", "coordinates": [ 13.348979, 52.478852 ] } },
{ "type": "Feature", "properties": { "id": "222", "layer": 0 }, "geometry": { "type": "Point", "coordinates": [ 13.47848, 52.480424 ] } },
{ "type": "Feature", "properties": { "id": "223", "layer": 0 }, "geometry": { "type": "Point", "coordinates": [ 13.439194, 52.480007 ] } },
{ "type": "Feature", "properties": { "id": "224", "layer": 0 }, "geometry": { "type": "Point", "coordinates": [ 13.411608, 52.492387 ] } },
{ "type": "Feature", "properties": { "id": "225", "layer": 0 }, "geometry": { "type": "Point", "coordinates": [ 13.419164, 52.490133 ] } },
{ "type": "Feature", "properties": { "id": "226", "layer": 0 }, "geometry": { "type": "Point", "coordinates": [ 13.456039, 52.538183 ] } },
{ "type": "Feature", "properties": { "id": "227", "layer": 0 }, "geometry": { "type": "Point", "coordinates": [ 13.42969, 52.482972 ] } },
{ "type": "Feature", "properties": { "id": "228", "layer": 0 }, "geometry": { "type": "Point", "coordinates": [ 13.463859, 52.491361 ] } },
{ "type": "Feature", "properties": { "id": "229", "layer": 0 }, "geometry": { "type": "Point", "coordinates": [ 13.417832, 52.485465 ] } },
{ "type": "Feature", "properties": { "id": "230", "layer": 0 }, "geometry": { "type": "Point", "coordinates": [ 13.362955, 52.505122 ] } },
{ "type": "Feature", "properties": { "id": "231", "layer": 0 }, "geometry": { "type": "Point", "coordinates": [ 13.351611, 52.517315 ] } },
{ "type": "Feature", "properties": { "id": "232", "layer": 0 }, "geometry": { "type": "Point", "coordinates": [ 13.364047, 52.532104 ] } },
{ "type": "Feature", "properties": { "id": "233", "layer": 0 }, "geometry": { "type": "Point", "coordinates": [ 13.452699, 52.51779 ] } },
{ "type": "Feature", "properties": { "id": "234", "layer": 0 }, "geometry": { "type": "Point", "coordinates": [ 13.431109, 52.520906 ] } },
{ "type": "Feature", "properties": { "id": "235", "layer": 0 }, "geometry": { "type": "Point", "coordinates": [ 13.425336, 52.513501 ] } },
{ "type": "Feature", "properties": { "id": "236", "layer": 0 }, "geometry": { "type": "Point", "coordinates": [ 13.342194, 52.488844 ] } },
{ "type": "Feature", "properties": { "id": "237", "layer": 0 }, "geometry": { "type": "Point", "coordinates": [ 13.395059, 52.534162 ] } },
{ "type": "Feature", "properties": { "id": "238", "layer": 0 }, "geometry": { "type": "Point", "coordinates": [ 13.370419, 52.49451 ] } },
{ "type": "Feature", "properties": { "id": "239", "layer": 0 }, "geometry": { "type": "Point", "coordinates": [ 13.492028, 52.548059 ] } },
{ "type": "Feature", "properties": { "id": "240", "layer": 0 }, "geometry": { "type": "Point", "coordinates": [ 13.39658, 52.490544 ] } },
{ "type": "Feature", "properties": { "id": "241", "layer": 0 }, "geometry": { "type": "Point", "coordinates": [ 13.424984, 52.536399 ] } },
{ "type": "Feature", "properties": { "id": "242", "layer": 0 }, "geometry": { "type": "Point", "coordinates": [ 13.371496, 52.526156 ] } },
{ "type": "Feature", "properties": { "id": "243", "layer": 0 }, "geometry": { "type": "Point", "coordinates": [ 13.472648, 52.503384 ] } },
{ "type": "Feature", "properties": { "id": "244", "layer": 0 }, "geometry": { "type": "Point", "coordinates": [ 13.337973, 52.498387 ] } },
{ "type": "Feature", "properties": { "id": "245", "layer": 0 }, "geometry": { "type": "Point", "coordinates": [ 13.367054, 52.518387 ] } },
{ "type": "Feature", "properties": { "id": "246", "layer": 0 }, "geometry": { "type": "Point", "coordinates": [ 13.493938, 52.496843 ] } },
{ "type": "Feature", "properties": { "id": "247", "layer": 0 }, "geometry": { "type": "Point", "coordinates": [ 13.451918, 52.533169 ] } },
{ "type": "Feature", "properties": { "id": "248", "layer": 0 }, "geometry": { "type": "Point", "coordinates": [ 13.412247, 52.528261 ] } },
{ "type": "Feature", "properties": { "id": "249", "layer": 0 }, "geometry": { "type": "Point", "coordinates": [ 13.365061, 52.518517 ] } },
{ "type": "Feature", "properties": { "id": "250", "layer": 0 }, "geometry": { "type": "Point", "coordinates": [ 13.409559, 52.540105 ] } },
{ "type": "Feature", "properties": { "id": "251", "layer": 0 }, "geometry": { "type": "Point", "coordinates": [ 13.354037, 52.536074 ] } },
{ "type": "Feature", "properties": { "id": "252", "layer": 0 }, "geometry": { "type": "Point", "coordinates": [ 13.450441, 52.504839 ] } },
{ "type": "Feature", "properties": { "id": "253", "layer": 0 }, "geometry": { "type": "Point", "coordinates": [ 13.468874, 52.501831 ] } },
{ "type": "Feature", "properties": { "id": "254", "layer": 0 }, "geometry": { "type": "Point", "coordinates": [ 13.373764, 52.542733 ] } },
{ "type": "Feature", "properties": { "id": "255", "layer": 0 }, "geometry": { "type": "Point", "coordinates": [ 13.487781, 52.476818 ] } },
{ "type": "Feature", "properties": { "id": "256", "layer": 0 }, "geometry": { "type": "Point", "coordinates": [ 13.367694, 52.506843 ] } },
{ "type": "Feature", "properties": { "id": "257", "layer": 0 }, "geometry": { "type": "Point", "coordinates": [ 13.451601, 52.52502 ] } },
{ "type": "Feature", "properties": { "id": "258", "layer": 0 }, "geometry": { "type": "Point", "coordinates": [ 13.372519, 52.547281 ] } },
{ "type": "Feature", "properties": { "id": "259", "layer": 0 }, "geometry": { "type": "Point", "coordinates": [ 13.386668, 52.500332 ] } },
{ "type": "Feature", "properties": { "id": "260", "layer": 0 }, "geometry": { "type": "Point", "coordinates": [ 13.478681, 52.516894 ] } },
{ "type": "Feature", "properties": { "id": "261", "layer": 0 }, "geometry": { "type": "Point", "coordinates": [ 13.357249, 52.549272 ] } },
{ "type": "Feature", "properties": { "id": "262", "layer": 0 }, "geometry": { "type": "Point", "coordinates": [ 13.332073, 52.496533 ] } },
{ "type": "Feature", "properties": { "id": "263", "layer": 0 }, "geometry": { "type": "Point", "coordinates": [ 13.408728, 52.518089 ] } },
{ "type": "Feature", "properties": { "id": "264", "layer": 0 }, "geometry": { "type": "Point", "coordinates": [ 13.480377, 52.51193 ] } },
{ "type": "Feature", "properties": { "id": "265", "layer": 0 }, "geometry": { "type": "Point", "coordinates": [ 13.408783, 52.525819 ] } },
{ "type": "Feature", "properties": { "id": "266", "layer": 0 }, "geometry": { "type": "Point", "coordinates": [ 13.418588, 52.516613 ] } },
{ "type": "Feature", "properties": { "id": "267", "layer": 0 }, "geometry": { "type": "Point", "coordinates": [ 13.425141, 52.532634 ] } },
{ "type": "Feature", "properties": { "id": "268", "layer": 0 }, "geometry": { "type": "Point", "coordinates": [ 13.476029, 52.506279 ] } },
{ "type": "Feature", "properties": { "id": "269", "layer": 0 }, "geometry": { "type": "Point", "coordinates": [ 13.382242, 52.516939 ] } },
{ "type": "Feature", "properties": { "id": "270", "layer": 0 }, "geometry": { "type": "Point", "coordinates": [ 13.346817, 52.491306 ] } },
{ "type": "Feature", "properties": { "id": "271", "layer": 0 }, "geometry": { "type": "Point", "coordinates": [ 13.342869, 52.487589 ] } },
{ "type": "Feature", "properties": { "id": "272", "layer": 0 }, "geometry": { "type": "Point", "coordinates": [ 13.487873, 52.542552 ] } },
{ "type": "Feature", "properties": { "id": "273", "layer": 0 }, "geometry": { "type": "Point", "coordinates": [ 13.412286, 52.538017 ] } },
{ "type": "Feature", "properties": { "id": "274", "layer": 0 }, "geometry": { "type": "Point", "coordinates": [ 13.465549, 52.504239 ] } },
{ "type": "Feature", "properties": { "id": "275", "layer": 0 }, "geometry": { "type": "Point", "coordinates": [ 13.428922, 52.522147 ] } },
{ "type": "Feature", "properties": { "id": "276", "layer": 0 }, "geometry": { "type": "Point", "coordinates": [ 13.35317, 52.529902 ] } },
{ "type": "Feature", "properties": { "id": "277", "layer": 0 }, "geometry": { "type": "Point", "coordinates": [ 13.476158, 52.536817 ] } },
{ "type": "Feature", "properties": { "id": "278", "layer": 0 }, "geometry": { "type": "Point", "coordinates": [ 13.373123, 52.543267 ] } },
{ "type": "Feature", "properties": { "id": "279", "layer": 0 }, "geometry": { "type": "Point", "coordinates": [ 13.350387, 52.483879 ] } },
{ "type": "Feature", "properties": { "id": "280", "layer": 0 }, "geometry": { "type": "Point", "coordinates": [ 13.417495, 52.490432 ] } },
{ "type": "Feature", "properties": { "id": "281", "layer": 0 }, "geometry": { "type": "Point", "coordinates": [ 13.357361, 52.502683 ] } },
{ "type": "Feature", "properties": { "id": "282", "layer": 0 }, "geometry": { "type": "Point", "coordinates": [ 13.393482, 52.526652 ] } },
{ "type": "Feature", "properties": { "id": "283", "layer": 0 }, "geometry": { "type": "Point", "coordinates": [ 13.4859, 52.480499 ] } },
{ "type": "Feature", "properties": { "id": "284", "layer": 0 }, "geometry": { "type": "Point", "coordinates": [ 13.366035, 52.5236 ] } },
{ "type": "Feature", "properties": { "id": "285", "layer": 0 }, "geometry": { "type": "Point", "coordinates": [ 13.399379, 52.537047 ] } },
{ "type": "Feature", "properties": { "id": "286", "layer": 0 }, "geometry": { "type": "Point", "coordinates": [ 13.42488, 52.5168 ] } },
{ "type": "Feature", "properties": { "id": "287", "layer": 0 }, "geometry": { "type": "Point", "coordinates": [ 13.359857, 52.536015 ] } },
{ "type": "Feature", "properties": { "id": "288", "layer": 0 }, "geometry": { "type": "Point", "coordinates": [ 13.387036, 52.502559 ] } },
{ "type": "Feature", "properties": { "id": "289", "layer": 0 }, "geometry": { "type": "Point", "coordinates": [ 13.458643, 52.485958 ] } },
{ "type": "Feature", "properties": { "id": "290", "layer": 0 }, "geometry": { "type": "Point", "coordinates": [ 13.340732, 52.493007 ] } },
{ "type": "Feature", "properties": { "id": "291", "layer": 0 }, "geometry": { "type": "Point", "coordinates": [ 13.461832, 52.493982 ] } },
{ "type": "Feature", "properties": { "id": "292", "layer": 0 }, "geometry": { "type": "Point", "coordinates": [ 13.464555, 52.516552 ] } },
{ "type": "Feature", "properties": { "id": "293", "layer": 0 }, "geometry": { "type": "Point", "coordinates": [ 13.414315, 52.507531 ] } },
{ "type": "Feature", "properties": { "id": "294", "layer": 0 }, "geometry": { "type": "Point", "coordinates": [ 13.367324, 52.534418 ] } },
{ "type": "Feature", "properties": { "id": "295", "layer": 0 }, "geometry": { "type": "Point", "coordinates": [ 13.353348, 52.521732 ] } },
{ "type": "Feature", "properties": { "id": "296", "layer": 0 }, "geometry": { "type": "Point", "coordinates": [ 13.33289, 52.525591 ] } },
{ "type": "Feature", "properties": { "id": "297", "layer": 0 }, "geometry": { "type": "Point", "coordinates": [ 13.449066, 52.497355 ] } },
{ "type": "Feature", "properties": { "id": "298", "layer": 0 }, "geometry": { "type": "Point", "coordinates": [ 13.40724, 52.507912 ] } },
{ "type": "Feature", "properties": { "id": "299", "layer": 0 }, "geometry": { "type": "Point", "coordinates": [ 13.386647, 52.526016 ] } },
{ "type": "Feature", "properties": { "id": "300", "layer": 0 }, "geometry": { "type": "Point", "coordinates": [ 13.370463, 52.488203 ] } },
{ "type": "Feature", "properties": { "id": "301", "layer": 0 }, "geometry": { "type": "Point", "coordinates": [ 13.411408, 52.519683 ] } },
{ "type": "Feature", "properties": { "id": "302", "layer": 0 }, "geometry": { "type": "Point", "coordinates": [ 13.409718, 52.513151 ] } },
{ "type": "Feature", "properties": { "id": "303", "layer": 0 }, "geometry": { "type": "Point", "coordinates": [ 13.476672, 52.50557 ] } },
{ "type": "Feature", "properties": { "id": "304", "layer": 0 }, "geometry": { "type": "Point", "coordinates": [ 13.400064, 52.484911 ] } },
{ "type": "Feature", "properties": { "id": "305", "layer": 0 }, "geometry": { "type": "Point", "coordinates": [ 13.378908, 52.517525 ] } },
{ "type": "Feature", "properties": { "id": "306", "layer": 0 }, "geometry": { "type": "Point", "coordinates": [ 13.410512, 52.526913 ] } },
{ "type": "Feature", "properties": { "id": "307", "layer": 0 }, "geometry": { "type": "Point", "coordinates": [ 13.376735, 52.533181 ] } },
{ "type": "Feature", "properties": { "id": "308", "layer": 0 }, "geometry": { "type": "Point", "coordinates": [ 13.379809, 52.503266 ] } },
{ "type": "Feature", "properties": { "id": "309", "layer": 0 }, "geometry": { "type": "Point", "coordinates": [ 13.447654, 52.520943 ] } },
{ "type": "Feature", "properties": { "id": "310", "layer": 0 }, "geometry": { "type": "Point", "coordinates": [ 13.486347, 52.513628 ] } },
{ "type": "Feature", "properties": { "id": "311", "layer": 0 }, "geometry": { "type": "Point", "coordinates": [ 13.449626, 52.542469 ] } },
{ "type": "Feature", "properties": { "id": "312", "layer": 0 }, "geometry": { "type": "Point", "coordinates": [ 13.42605, 52.493666 ] } },
{ "type": "Feature", "properties": { "id": "313", "layer": 0 }, "geometry": { "type": "Point", "coordinates": [ 13.423504, 52.499171 ] } },
{ "type": "Feature", "properties": { "id": "314", "layer": 0 }, "geometry": { "type": "Point", "coordinates": [ 13.407445, 52.495918 ] } },
{ "type": "Feature", "properties": { "id": "315", "layer": 0 }, "geometry": { "type": "Point", "coordinates": [ 13.439209, 52.532798 ] } },
{ "type": "Feature", "properties": { "id": "316", "layer": 0 }, "geometry": { "type": "Point", "coordinates": [ 13.438952, 52.519886 ] } },
{ "type": "Feature", "properties": { "id": "317", "layer": 0 }, "geometry": { "type": "Point", "coordinates": [ 13.442301, 52.496975 ] } },
{ "type": "Feature", "properties": { "id": "318", "layer": 0 }, "geometry": { "type": "Point", "coordinates": [ 13.394417, 52.526898 ] } },
{ "type": "Feature", "properties": { "id": "319", "layer": 0 }, "geometry": { "type": "Point", "coordinates": [ 13.35634, 52.544281 ] } },
{ "type": "Feature", "properties": { "id": "320", "layer": 0 }, "geometry": { "type": "Point", "coordinates": [ 13.419716, 52.477777 ] } },
{ "type": "Feature", "properties": { "id": "321", "layer": 0 }, "geometry": { "type": "Point", "coordinates": [ 13.342229, 52.520477 ] } },
{ "type": "Feature", "properties": { "id": "322", "layer": 0 }, "geometry": { "type": "Point", "coordinates": [ 13.485273, 52.49462 ] } },
{ "type": "Feature", "properties": { "id": "323", "layer": 0 }, "geometry": { "type": "Point", "coordinates": [ 13.488613, 52.509868 ] } },
{ "type": "Feature", "properties": { "id": "324", "layer": 0 }, "geometry": { "type": "Point", "coordinates": [ 13.450919, 52.538376 ] } },
{ "type": "Feature", "properties": { "id": "325", "layer": 0 }, "geometry": { "type": "Point", "coordinates": [ 13.360141, 52.494613 ] } },
{ "type": "Feature", "properties": { "id": "326", "layer": 0 }, "geometry": { "type": "Point", "coordinates": [ 13.337633, 52.488449 ] } },
{ "type": "Feature", "properties": { "id": "327", "layer": 0 }, "geometry": { "type": "Point", "coordinates": [ 13.381734, 52.479226 ] } },
{ "type": "Feature", "properties": { "id": "328", "layer": 0 }, "geometry": { "type": "Point", "coordinates": [ 13.461264, 52.534454 ] } },
{ "type": "Feature", "properties": { "id": "329", "layer": 0 }, "geometry": { "type": "Point", "coordinates": [ 13.426594, 52.479527 ] } },
{ "type": "Feature", "properties": { "id": "330", "layer": 0 }, "geometry": { "type": "Point", "coordinates": [ 13.403704, 52.539708 ] } },
{ "type": "Feature", "properties": { "id": "331", "layer": 0 }, "geometry": { "type": "Point", "coordinates": [ 13.444983, 52.519824 ] } },
{ "type": "Feature", "properties": { "id": "332", "layer": 0 }, "geometry": { "type": "Point", "coordinates": [ 13.346399, 52.527555 ] } },
{ "type": "Feature", "properties": { "id": "333", "layer": 0 }, "geometry": { "type": "Point", "coordinates": [ 13.491467, 52.485162 ] } },
{ "type": "Feature", "properties": { "id": "334", "layer": 0 }, "geometry": { "type": "Point", "coordinates": [ 13.466962, 52.540811 ] } },
{ "type": "Feature", "properties": { "id": "335", "layer": 0 }, "geometry": { "type": "Point", "coordinates": [ 13.408955, 52.485412 ] } },
{ "type": "Feature", "properties": { "id": "336", "layer": 0 }, "geometry": { "type": "Point", "coordinates": [ 13.365825, 52.501947 ] } },
{ "type": "Feature", "properties": { "id": "337", "layer": 0 }, "geometry": { "type": "Point", "coordinates": [ 13.382114, 52.479269 ] } },
{ "type": "Feature", "properties": { "id": "338", "layer": 0 }, "geometry": { "type": "Point", "coordinates": [ 13.34982, 52.495752 ] } },
{ "type": "Feature", "properties": { "id": "339", "layer": 0 }, "geometry": { "type": "Point", "coordinates": [ 13.421543, 52.506502 ] } },
{ "type": "Feature", "properties": { "id": "340", "layer": 0 }, "geometry": { "type": "Point", "coordinates": [ 13.417174, 52.505966 ] } },
{ "type": "Feature", "properties": { "id": "341", "layer": 0 }, "geometry": { "type": "Point", "coordinates": [ 13.376831, 52.493249 ] } },
{ "type": "Feature", "properties": { "id": "342", "layer": 0 }, "geometry": { "type": "Point", "coordinates": [ 13.394348, 52.527525 ] } },
{ "type": "Feature", "properties": { "id": "343", "layer": 0 }, "geometry": { "type": "Point", "coordinates": [ 13.40339, 52.485188 ] } },
{ "type": "Feature", "properties": { "id": "344", "layer": 0 }, "geometry": { "type": "Point", "coordinates": [ 13.414648, 52.508525 ] } },
{ "type": "Feature", "properties": { "id": "345", "layer": 0 }, "geometry": { "type": "Point", "coordinates": [ 13.45226, 52.478579 ] } },
{ "type": "Feature", "properties": { "id": "346", "layer": 0 }, "geometry": { "type": "Point", "coordinates": [ 13.412819, 52.518102 ] } },
{ "type": "Feature", "properties": { "id": "347", "layer": 0 }, "geometry": { "type": "Point", "coordinates": [ 13.465301, 52.509916 ] } },
{ "type": "Feature", "properties": { "id": "348", "layer": 0 }, "geometry": { "type": "Point", "coordinates": [ 13.468879, 52.530439 ] } },
{ "type": "Feature", "properties": { "id": "349", "layer": 0 }, "geometry": { "type": "Point", "coordinates": [ 13.412216, 52.524802 ] } },
{ "type": "Feature", "properties": { "id": "350", "layer": 0 }, "geometry": { "type": "Point", "coordinates": [ 13.419015, 52.487607 ] } },
{ "type": "Feature", "properties": { "id": "351", "layer": 0 }, "geometry": { "type": "Point", "coordinates": [ 13.48705, 52.532626 ] } },
{ "type": "Feature", "properties": { "id": "352", "layer": 0 }, "geometry": { "type": "Point", "coordinates": [ 13.402702, 52.523907 ] } },
{ "type": "Feature", "properties": { "id": "353", "layer": 0 }, "geometry": { "type": "Point", "coordinates": [ 13.422015, 52.476222 ] } },
{ "type": "Feature", "properties": { "id": "354", "layer": 0 }, "geometry": { "type": "Point", "coordinates": [ 13.448745, 52.49759 ] } },
{ "type": "Feature", "properties": { "id": "355", "layer": 0 }, "geometry": { "type": "Point", "coordinates": [ 13.399551, 52.477804 ] } },
{ "type": "Feature", "properties": { "id": "356", "layer": 0 }, "geometry": { "type": "Point", "coordinates": [ 13.345308, 52.540298 ] } },
{ "type": "Feature", "properties": { "id": "357", "layer": 0 }, "geometry": { "type": "Point", "coordinates": [ 13.352098, 52.477442 ] } },
{ "type": "Feature", "properties": { "id": "358", "layer": 0 }, "geometry": { "type": "Point", "coordinates": [ 13.471526, 52.530649 ] } },
{ "type": "Feature", "properties": { "id": "359", "layer": 0 }, "geometry": { "type": "Point", "coordinates": [ 13.363254, 52.52136 ] } },
{ "type": "Feature", "properties": { "id": "360", "layer": 0 }, "geometry": { "type": "Point", "coordinates": [ 13.454361, 52.4995 ] } },
{ "type": "Feature", "properties": { "id": "361", "layer": 0 }, "geometry": { "type": "Point", "coordinates": [ 13.392764, 52.506668 ] } },
{ "type": "Feature", "properties": { "id": "362", "layer": 0 }, "geometry": { "type": "Point", "coordinates": [ 13.407098, 52.498787 ] } },
{ "type": "Feature", "properties": { "id": "363", "layer": 0 }, "geometry": { "type": "Point", "coordinates": [ 13.409967, 52.520686 ] } },
{ "type": "Feature", "properties": { "id": "364", "layer": 0 }, "geometry": { "type": "Point", "coordinates": [ 13.342965, 52.535931 ] } },
{ "type": "Feature", "properties": { "id": "365", "layer": 0 }, "geometry": { "type": "Point", "coordinates": [ 13.407147, 52.488318 ] } },
{ "type": "Feature", "properties": { "id": "366", "layer": 0 }, "geometry": { "type": "Point", "coordinates": [ 13.47001, 52.491141 ] } },
{ "type": "Feature", "properties": { "id": "367", "layer": 0 }, "geometry": { "type": "Point", "coordinates": [ 13.338341, 52.505914 ] } },
{ "type": "Feature", "properties": { "id": "368", "layer": 0 }, "geometry": { "type": "Point", "coordinates": [ 13.398122, 52.528558 ] } },
{ "type": "Feature", "properties": { "id": "369", "layer": 0 }, "geometry": { "type": "Point", "coordinates": [ 13.357283, 52.493385 ] } },
{ "type": "Feature", "properties": { "id": "370", "layer": 0 }, "geometry": { "type": "Point", "coordinates": [ 13.363964, 52.522555 ] } },
{ "type": "Feature", "properties": { "id": "371", "layer": 0 }, "geometry": { "type": "Point", "coordinates": [ 13.391117, 52.522703 ] } },
{ "type": "Feature", "properties": { "id": "372", "layer": 0 }, "geometry": { "type": "Point", "coordinates": [ 13.419076, 52.498188 ] } },
{ "type": "Feature", "properties": { "id": "373", "layer": 0 }, "geometry": { "type": "Point", "coordinates": [ 13.436293, 52.545543 ] } },
{ "type": "Feature", "properties": { "id": "374", "layer": 0 }, "geometry": { "type": "Point", "coordinates": [ 13.476671, 52.484822 ] } },
{ "type": "Feature", "properties": { "id": "375", "layer": 0 }, "geometry": { "type": "Point", "coordinates": [ 13.419762, 52.533273 ] } },
{ "type": "Feature", "properties": { "id": "376", "layer": 0 }, "geometry": { "type": "Point", "coordinates": [ 13.408891, 52.502331 ] } },
{ "type": "Feature", "properties": { "id": "377", "layer": 0 }, "geometry": { "type": "Point", "coordinates": [ 13.371372, 52.505457 ] } },
{ "type": "Feature", "properties": { "id": "378", "layer": 0 }, "geometry": { "type": "Point", "coordinates": [ 13.482064, 52.530351 ] } },
{ "type": "Feature", "properties": { "id": "379", "layer": 0 }, "geometry": { "type": "Point", "coordinates": [ 13.416824, 52.536345 ] } },
{ "type": "Feature", "properties": { "id": "380", "layer": 0 }, "geometry": { "type": "Point", "coordinates": [ 13.415074, 52.493102 ] } },
{ "type": "Feature", "properties": { "id": "381", "layer": 0 }, "geometry": { "type": "Point", "coordinates": [ 13.399105, 52.515704 ] } },
{ "type": "Feature", "properties": { "id": "382", "layer": 0 }, "geometry": { "type": "Point", "coordinates": [ 13.390296, 52.540235 ] } },
{ "type": "Feature", "properties": { "id": "383", "layer": 0 }, "geometry": { "type": "Point", "coordinates": [ 13.345141, 52.520722 ] } },
{ "type": "Feature", "properties": { "id": "384", "layer": 0 }, "geometry": { "type": "Point", "coordinates": [ 13.345344, 52.494002 ] } },
{ "type": "Feature", "properties": { "id": "385", "layer": 0 }, "geometry": { "type": "Point", "coordinates": [ 13.45965, 52.504603 ] } },
{ "type": "Feature", "properties": { "id": "386", "layer": 0 }, "geometry": { "type": "Point", "coordinates": [ 13.366344, 52.523316 ] } },
{ "type": "Feature", "properties": { "id": "387", "layer": 0 }, "geometry": { "type": "Point", "coordinates": [ 13.475614, 52.526169 ] } },
{ "type": "Feature", "properties": { "id": "388", "layer": 0 }, "geometry": { "type": "Point", "coordinates": [ 13.490001, 52.491187 ] } },
{ "type": "Feature", "properties": { "id": "389", "layer": 0 }, "geometry": { "type": "Point", "coordinates": [ 13.36144, 52.522968 ] } },
{ "type": "Feature", "properties": { "id": "390", "layer": 0 }, "geometry": { "type": "Point", "coordinates": [ 13.382371, 52.516512 ] } },
{ "type": "Feature", "properties": { "id": "391", "layer": 0 }, "geometry": { "type": "Point", "coordinates": [ 13.38008, 52.537616 ] } },
{ "type": "Feature", "properties": { "id": "392", "layer": 0 }, "geometry": { "type": "Point", "coordinates": [ 13.3388, 52.488348 ] } },
{ "type": "Feature", "properties": { "id": "393", "layer": 0 }, "geometry": { "type": "Point", "coordinates": [ 13.352721, 52.544127 ] } },
{ "type": "Feature", "properties": { "id": "394", "layer": 0 }, "geometry": { "type": "Point", "coordinates": [ 13.461476, 52.511512 ] } },
{ "type": "Feature", "properties": { "id": "395", "layer": 0 }, "geometry": { "type": "Point", "coordinates": [ 13.452236, 52.537971 ] } },
{ "type": "Feature", "properties": { "id": "396", "layer": 0 }, "geometry": { "type": "Point", "coordinates": [ 13.446136, 52.53837 ] } },
{ "type": "Feature", "properties": { "id": "397", "layer": 0 }, "geometry": { "type": "Point", "coordinates": [ 13.419054, 52.497205 ] } },
{ "type": "Feature", "properties": { "id": "398", "layer": 0 }, "geometry": { "type": "Point", "coordinates": [ 13.416266, 52.528798 ] } },
{ "type": "Feature", "properties": { "id": "399", "layer": 0 }, "geometry": { "type": "Point", "coordinates": [ 13.339127, 52.487977 ] } }
]
}
