{"type":"FeatureCollection","features":[{"id":"0","type":"Feature","properties":{"layer":0},"geometry":{"type":"Point","coordinates":[13.391616,52.49682]}},{"id":"1","type":"Feature","properties":{"layer":0},"geometry":{"type":"Point","coordinates":[13.45305,52.529721]}},{"id":"2","type":"Feature","properties":{"layer":0},"geometry":{"type":"Point","coordinates":[13.401465,52.541038]}},{"id":"3","type":"Feature","properties":{"layer":0},"geometry":{"type":"Point","coordinates":[13.393943,52.485753]}},{"id":"4","type":"Feature","properties":{"layer":0},"geometry":{"type":"Point","coordinates":[13.477844,52.524827]}},{"id":"5","type":"Feature","properties":{"layer":0},"geometry":{"type":"Point","coordinates":[13.489981,52.500677]}},{"id":"6","type":"Feature","properties":{"layer":0},"geometry":{"type":"Point","coordinates":[13.445988,52.520292]}},{"id":"7","type":"Feature","properties":{"layer":0},"geometry":{"type":"Point","coordinates":[13.464316,52.504728]}},{"id":"8","type":"Feature","properties":{"layer":0},"geometry":{"type":"Point","coordinates":[13.437328,52.488615]}},{"id":"9","type":"Feature","properties":{"layer":0},"geometry":{"type":"Point","coordinates":[13.442205,52.527454]}},{"id":"10","type":"Feature","properties":{"layer":0},"geometry":{"type":"Point","coordinates":[13.466128,52.54003]}},{"id":"11","type":"Feature","properties":{"layer":0},"geometry":{"type":"Point","coordinates":[13.405412,52.520684]}},{"id":"12","type":"Feature","properties":{"layer":0},"geometry":{"type":"Point","coordinates":[13.465543,52.53261]}},{"id":"13","type":"Feature","properties":{"layer":0},"geometry":{"type":"Point","coordinates":[13.455237,52.5449]}},{"id":"14","type":"Feature","properties":{"layer":0},"geometry":{"type":"Point","coordinates":[13.421535,52.536513]}},{"id":"15","type":"Feature","properties":{"layer":0},"geometry":{"type":"Point","coordinates":[13.45819,52.489327]}},{"id":"16","type":"Feature","properties":{"layer":0},"geometry":{"type":"Point","coordinates":[13.367775,52.504821]}},{"id":"17","type":"Feature","properties":{"layer":0},"geometry":{"type":"Point","coordinates":[13.417583,52.521436]}},{"id":"18","type":"Feature","properties":{"layer":0},"geometry":{"type":"Point","coordinates":[13.3359,52.487687]}},{"id":"19","type":"Feature","properties":{"layer":0},"geometry":{"type":"Point","coordinates":[13.348316,52.548907]}},{"id":"20","type":"Feature","properties":{"layer":0},"geometry":{"type":"Point","coordinates":[13.463748,52.508314]}},{"id":"21","type":"Feature","properties":{"layer":0},"geometry":{"type":"Point","coordinates":[13.442539,52.543228]}},{"id":"22","type":"Feature","properties":{"layer":0},"geometry":{"type":"Point","coordinates":[13.460624,52.4777]}},{"id":"23","type":"Feature","properties":{"layer":0},"geometry":{"type":"Point","coordinates":[13.350184,52.494381]}},{"id":"24","type":"Feature","properties":{"layer":0},"geometry":{"type":"Point","coordinates":[13.407616,52.501924]}},{"id":"25","type":"Feature","properties":{"layer":0},"geometry":{"type":"Point","coordinates":[13.490394,52.480288]}},{"id":"26","type":"Feature","properties":{"layer":0},"geometry":{"type":"Point","coordinates":[13.398991,52.495214]}},{"id":"27","type":"Feature","properties":{"layer":0},"geometry":{"type":"Point","coordinates":[13.473095,52.515573]}},{"id":"28","type":"Feature","properties":{"layer":0},"geometry":{"type":"Point","coordinates":[13.476722,52.531632]}},{"id":"29","type":"Feature","properties":{"layer":0},"geometry":{"type":"Point","coordinates":[13.408055,52.505253]}},{"id":"30","type":"Feature","properties":{"layer":0},"geometry":{"type":"Point","coordinates":[13.422343,52.545897]}},{"id":"31","type":"Feature","properties":{"layer":0},"geometry":{"type":"Point","coordinates":[13.359097,52.507522]}},{"id":"32","type":"Feature","properties":{"layer":0},"geometry":{"type":"Point","coordinates":[13.381704,52.489236]}},{"id":"33","type":"Feature","properties":{"layer":0},"geometry":{"type":"Point","coordinates":[13.430838,52.531396]}},{"id":"34","type":"Feature","properties":{"layer":0},"geometry":{"type":"Point","coordinates":[13.455841,52.501855]}},{"id":"35","type":"Feature","properties":{"layer":0},"geometry":{"type":"Point","coordinates":[13.425041,52.484539]}},{"id":"36","type":"Feature","properties":{"layer":0},"geometry":{"type":"Point","coordinates":[13.415048,52.533611]}},{"id":"37","type":"Feature","properties":{"layer":0},"geometry":{"type":"Point","coordinates":[13.378772,52.494383]}},{"id":"38","type":"Feature","properties":{"layer":0},"geometry":{"type":"Point","coordinates":[13.392869,52.514436]}},{"id":"39","type":"Feature","properties":{"layer":0},"geometry":{"type":"Point","coordinates":[13.452258,52.499855]}},{"id":"40","type":"Feature","properties":{"layer":0},"geometry":{"type":"Point","coordinates":[13.401808,52.528886]}},{"id":"41","type":"Feature","properties":{"layer":0},"geometry":{"type":"Point","coordinates":[13.366201,52.51003]}},{"id":"42","type":"Feature","properties":{"layer":0},"geometry":{"type":"Point","coordinates":[13.478906,52.507578]}},{"id":"43","type":"Feature","properties":{"layer":0},"geometry":{"type":"Point","coordinates":[13.478163,52.491413]}},{"id":"44","type":"Feature","properties":{"layer":0},"geometry":{"type":"Point","coordinates":[13.343095,52.502783]}},{"id":"45","type":"Feature","properties":{"layer":0},"geometry":{"type":"Point","coordinates":[13.422253,52.490709]}},{"id":"46","type":"Feature","properties":{"layer":0},"geometry":{"type":"Point","coordinates":[13.354053,52.538898]}},{"id":"47","type":"Feature","properties":{"layer":0},"geometry":{"type":"Point","coordinates":[13.471019,52.527861]}},{"id":"48","type":"Feature","properties":{"layer":0},"geometry":{"type":"Point","coordinates":[13.471954,52.526506]}},{"id":"49","type":"Feature","properties":{"layer":0},"geometry":{"type":"Point","coordinates":[13.443348,52.497674]}},{"id":"50","type":"Feature","properties":{"layer":0},"geometry":{"type":"Point","coordinates":[13.366024,52.514039]}},{"id":"51","type":"Feature","properties":{"layer":0},"geometry":{"type":"Point","coordinates":[13.486958,52.506506]}},{"id":"52","type":"Feature","properties":{"layer":0},"geometry":{"type":"Point","coordinates":[13.473997,52.487798]}},{"id":"53","type":"Feature","properties":{"layer":0},"geometry":{"type":"Point","coordinates":[13.463722,52.534907]}},{"id":"54","type":"Feature","properties":{"layer":0},"geometry":{"type":"Point","coordinates":[13.348815,52.487862]}},{"id":"55","type":"Feature","properties":{"layer":0},"geometry":{"type":"Point","coordinates":[13.350957,52.492792]}},{"id":"56","type":"Feature","properties":{"layer":0},"geometry":{"type":"Point","coordinates":[13.402008,52.520922]}},{"id":"57","type":"Feature","properties":{"layer":0},"geometry":{"type":"Point","coordinates":[13.357132,52.514692]}},{"id":"58","type":"Feature","properties":{"layer":0},"geometry":{"type":"Point","coordinates":[13.344738,52.522534]}},{"id":"59","type":"Feature","properties":{"layer":0},"geometry":{"type":"Point","coordinates":[13.475082,52.524992]}},{"id":"60","type":"Feature","properties":{"layer":0},"geometry":{"type":"Point","coordinates":[13.460182,52.532628]}},{"id":"61","type":"Feature","properties":{"layer":0},"geometry":{"type":"Point","coordinates":[13.427556,52.496808]}},{"id":"62","type":"Feature","properties":{"layer":0},"geometry":{"type":"Point","coordinates":[13.416214,52.547972]}},{"id":"63","type":"Feature","properties":{"layer":0},"geometry":{"type":"Point","coordinates":[13.405541,52.491804]}},{"id":"64","type":"Feature","properties":{"layer":0},"geometry":{"type":"Point","coordinates":[13.435317,52.54092]}},{"id":"65","type":"Feature","properties":{"layer":0},"geometry":{"type":"Point","coordinates":[13.470414,52.493354]}},{"id":"66","type":"Feature","properties":{"layer":0},"geometry":{"type":"Point","coordinates":[13.481588,52.492951]}},{"id":"67","type":"Feature","properties":{"layer":0},"geometry":{"type":"Point","coordinates":[13.47828,52.510399]}},{"id":"68","type":"Feature","properties":{"layer":0},"geometry":{"type":"Point","coordinates":[13.332277,52.510752]}},{"id":"69","type":"Feature","properties":{"layer":0},"geometry":{"type":"Point","coordinates":[13.335324,52.487601]}},{"id":"70","type":"Feature","properties":{"layer":0},"geometry":{"type":"Point","coordinates":[13.414629,52.549895]}},{"id":"71","type":"Feature","properties":{"layer":0},"geometry":{"type":"Point","coordinates":[13.392573,52.548241]}},{"id":"72","type":"Feature","properties":{"layer":0},"geometry":{"type":"Point","coordinates":[13.4231,52.545526]}},{"id":"73","type":"Feature","properties":{"layer":0},"geometry":{"type":"Point","coordinates":[13.368496,52.527415]}},{"id":"74","type":"Feature","properties":{"layer":0},"geometry":{"type":"Point","coordinates":[13.442539,52.5343]}},{"id":"75","type":"Feature","properties":{"layer":0},"geometry":{"type":"Point","coordinates":[13.379335,52.535528]}},{"id":"76","type":"Feature","properties":{"layer":0},"geometry":{"type":"Point","coordinates":[13.422793,52.485162]}},{"id":"77","type":"Feature","properties":{"layer":0},"geometry":{"type":"Point","coordinates":[13.468497,52.525999]}},{"id":"78","type":"Feature","properties":{"layer":0},"geometry":{"type":"Point","coordinates":[13.428662,52.498754]}},{"id":"79","type":"Feature","properties":{"layer":0},"geometry":{"type":"Point","coordinates":[13.452606,52.499086]}},{"id":"80","type":"Feature","properties":{"layer":0},"geometry":{"type":"Point","coordinates":[13.350706,52.535255]}},{"id":"81","type":"Feature","properties":{"layer":0},"geometry":{"type":"Point","coordinates":[13.412435,52.509889]}},{"id":"82","type":"Feature","properties":{"layer":0},"geometry":{"type":"Point","coordinates":[13.425915,52.496058]}},{"id":"83","type":"Feature","properties":{"layer":0},"geometry":{"type":"Point","coordinates":[13.461587,52.530629]}},{"id":"84","type":"Feature","properties":{"layer":0},"geometry":{"type":"Point","coordinates":[13.488211,52.528117]}},{"id":"85","type":"Feature","properties":{"layer":0},"geometry":{"type":"Point","coordinates":[13.400549,52.511411]}},{"id":"86","type":"Feature","properties":{"layer":0},"geometry":{"type":"Point","coordinates":[13.399247,52.510963]}},{"id":"87","type":"Feature","properties":{"layer":0},"geometry":{"type":"Point","coordinates":[13.34773,52.53684]}},{"id":"88","type":"Feature","properties":{"layer":0},"geometry":{"type":"Point","coordinates":[13.356071,52.491615]}},{"id":"89","type":"Feature","properties":{"layer":0},"geometry":{"type":"Point","coordinates":[13.421371,52.492922]}},{"id":"90","type":"Feature","properties":{"layer":0},"geometry":{"type":"Point","coordinates":[13.374981,52.524746]}},{"id":"91","type":"Feature","properties":{"layer":0},"geometry":{"type":"Point","coordinates":[13.458121,52.486956]}},{"id":"92","type":"Feature","properties":{"layer":0},"geometry":{"type":"Point","coordinates":[13.405142,52.523972]}},{"id":"93","type":"Feature","properties":{"layer":0},"geometry":{"type":"Point","coordinates":[13.451124,52.522066]}},{"id":"94","type":"Feature","properties":{"layer":0},"geometry":{"type":"Point","coordinates":[13.415698,52.508137]}},{"id":"95","type":"Feature","properties":{"layer":0},"geometry":{"type":"Point","coordinates":[13.428013,52.505048]}},{"id":"96","type":"Feature","properties":{"layer":0},"geometry":{"type":"Point","coordinates":[13.348131,52.49064]}},{"id":"97","type":"Feature","properties":{"layer":0},"geometry":{"type":"Point","coordinates":[13.495877,52.500254]}},{"id":"98","type":"Feature","properties":{"layer":0},"geometry":{"type":"Point","coordinates":[13.346982,52.511759]}},{"id":"99","type":"Feature","properties":{"layer":0},"geometry":{"type":"Point","coordinates":[13.41182,52.501658]}},{"id":"100","type":"Feature","properties":{"layer":0},"geometry":{"type":"Point","coordinates":[13.419963,52.501006]}},{"id":"101","type":"Feature","properties":{"layer":0},"geometry":{"type":"Point","coordinates":[13.402956,52.535292]}},{"id":"102","type":"Feature","properties":{"layer":0},"geometry":{"type":"Point","coordinates":[13.361258,52.530506]}},{"id":"103","type":"Feature","properties":{"layer":0},"geometry":{"type":"Point","coordinates":[13.391389,52.500831]}},{"id":"104","type":"Feature","properties":{"layer":0},"geometry":{"type":"Point","coordinates":[13.381361,52.54542]}},{"id":"105","type":"Feature","properties":{"layer":0},"geometry":{"type":"Point","coordinates":[13.457923,52.488235]}},{"id":"106","type":"Feature","properties":{"layer":0},"geometry":{"type":"Point","coordinates":[13.445618,52.513938]}},{"id":"107","type":"Feature","properties":{"layer":0},"geometry":{"type":"Point","coordinates":[13.416356,52.491137]}},{"id":"108","type":"Feature","properties":{"layer":0},"geometry":{"type":"Point","coordinates":[13.437226,52.547758]}},{"id":"109","type":"Feature","properties":{"layer":0},"geometry":{"type":"Point","coordinates":[13.487581,52.519714]}},{"id":"110","type":"Feature","properties":{"layer":0},"geometry":{"type":"Point","coordinates":[13.397605,52.536561]}},{"id":"111","type":"Feature","properties":{"layer":0},"geometry":{"type":"Point","coordinates":[13.413607,52.502368]}},{"id":"112","type":"Feature","properties":{"layer":0},"geometry":{"type":"Point","coordinates":[13.415795,52.482445]}},{"id":"113","type":"Feature","properties":{"layer":0},"geometry":{"type":"Point","coordinates":[13.39318,52.521514]}},{"id":"114","type":"Feature","properties":{"layer":0},"geometry":{"type":"Point","coordinates":[13.336797,52.536555]}},{"id":"115","type":"Feature","properties":{"layer":0},"geometry":{"type":"Point","coordinates":[13.468583,52.477853]}},{"id":"116","type":"Feature","properties":{"layer":0},"geometry":{"type":"Point","coordinates":[13.423986,52.518095]}},{"id":"117","type":"Feature","properties":{"layer":0},"geometry":{"type":"Point","coordinates":[13.409943,52.52009]}},{"id":"118","type":"Feature","properties":{"layer":0},"geometry":{"type":"Point","coordinates":[13.482464,52.492521]}},{"id":"119","type":"Feature","properties":{"layer":0},"geometry":{"type":"Point","coordinates":[13.359991,52.521149]}},{"id":"120","type":"Feature","properties":{"layer":0},"geometry":{"type":"Point","coordinates":[13.377559,52.507021]}},{"id":"121","type":"Feature","properties":{"layer":0},"geometry":{"type":"Point","coordinates":[13.401115,52.489946]}},{"id":"122","type":"Feature","properties":{"layer":0},"geometry":{"type":"Point","coordinates":[13.341924,52.534076]}},{"id":"123","type":"Feature","properties":{"layer":0},"geometry":{"type":"Point","coordinates":[13.475344,52.528818]}},{"id":"124","type":"Feature","properties":{"layer":0},"geometry":{"type":"Point","coordinates":[13.45937,52.548209]}},{"id":"125","type":"Feature","properties":{"layer":0},"geometry":{"type":"Point","coordinates":[13.454116,52.503043]}},{"id":"126","type":"Feature","properties":{"layer":0},"geometry":{"type":"Point","coordinates":[13.34055,52.48515]}},{"id":"127","type":"Feature","properties":{"layer":0},"geometry":{"type":"Point","coordinates":[13.430801,52.493087]}},{"id":"128","type":"Feature","properties":{"layer":0},"geometry":{"type":"Point","coordinates":[13.336052,52.489322]}},{"id":"129","type":"Feature","properties":{"layer":0},"geometry":{"type":"Point","coordinates":[13.427182,52.544894]}},{"id":"130","type":"Feature","properties":{"layer":0},"geometry":{"type":"Point","coordinates":[13.435727,52.5122]}},{"id":"131","type":"Feature","properties":{"layer":0},"geometry":{"type":"Point","coordinates":[13.464415,52.53007]}},{"id":"132","type":"Feature","properties":{"layer":0},"geometry":{"type":"Point","coordinates":[13.335992,52.489373]}},{"id":"133","type":"Feature","properties":{"layer":0},"geometry":{"type":"Point","coordinates":[13.444958,52.503004]}},{"id":"134","type":"Feature","properties":{"layer":0},"geometry":{"type":"Point","coordinates":[13.480738,52.519417]}},{"id":"135","type":"Feature","properties":{"layer":0},"geometry":{"type":"Point","coordinates":[13.342318,52.491902]}},{"id":"136","type":"Feature","properties":{"layer":0},"geometry":{"type":"Point","coordinates":[13.478913,52.540218]}},{"id":"137","type":"Feature","properties":{"layer":0},"geometry":{"type":"Point","coordinates":[13.455829,52.517082]}},{"id":"138","type":"Feature","properties":{"layer":0},"geometry":{"type":"Point","coordinates":[13.402383,52.539801]}},{"id":"139","type":"Feature","properties":{"layer":0},"geometry":{"type":"Point","coordinates":[13.385569,52.538528]}},{"id":"140","type":"Feature","properties":{"layer":0},"geometry":{"type":"Point","coordinates":[13.428799,52.487871]}},{"id":"141","type":"Feature","properties":{"layer":0},"geometry":{"type":"Point","coordinates":[13.39973,52.513309]}},{"id":"142","type":"Feature","properties":{"layer":0},"geometry":{"type":"Point","coordinates":[13.381863,52.477634]}},{"id":"143","type":"Feature","properties":{"layer":0},"geometry":{"type":"Point","coordinates":[13.332971,52.479168]}},{"id":"144","type":"Feature","properties":{"layer":0},"geometry":{"type":"Point","coordinates":[13.350214,52.545118]}},{"id":"145","type":"Feature","properties":{"layer":0},"geometry":{"type":"Point","coordinates":[13.39016,52.51083]}},{"id":"146","type":"Feature","properties":{"layer":0},"geometry":{"type":"Point","coordinates":[13.346293,52.525474]}},{"id":"147","type":"Feature","properties":{"layer":0},"geometry":{"type":"Point","coordinates":[13.362723,52.545076]}},{"id":"148","type":"Feature","properties":{"layer":0},"geometry":{"type":"Point","coordinates":[13.440729,52.525383]}},{"id":"149","type":"Feature","properties":{"layer":0},"geometry":{"type":"Point","coordinates":[13.487813,52.515779]}},{"id":"150","type":"Feature","properties":{"layer":0},"geometry":{"type":"Point","coordinates":[13.485487,52.525083]}},{"id":"151","type":"Feature","properties":{"layer":0},"geometry":{"type":"Point","coordinates":[13.401133,52.540391]}},{"id":"152","type":"Feature","properties":{"layer":0},"geometry":{"type":"Point","coordinates":[13.369439,52.47658]}},{"id":"153","type":"Feature","properties":{"layer":0},"geometry":{"type":"Point","coordinates":[13.433442,52.491179]}},{"id":"154","type":"Feature","properties":{"layer":0},"geometry":{"type":"Point","coordinates":[13.488275,52.533032]}},{"id":"155","type":"Feature","properties":{"layer":0},"geometry":{"type":"Point","coordinates":[13.35955,52.497686]}},{"id":"156","type":"Feature","properties":{"layer":0},"geometry":{"type":"Point","coordinates":[13.36238,52.544876]}},{"id":"157","type":"Feature","properties":{"layer":0},"geometry":{"type":"Point","coordinates":[13.378437,52.522165]}},{"id":"158","type":"Feature","properties":{"layer":0},"geometry":{"type":"Point","coordinates":[13.336694,52.535012]}},{"id":"159","type":"Feature","properties":{"layer":0},"geometry":{"type":"Point","coordinates":[13.375011,52.502569]}},{"id":"160","type":"Feature","properties":{"layer":0},"geometry":{"type":"Point","coordinates":[13.349078,52.517223]}},{"id":"161","type":"Feature","properties":{"layer":0},"geometry":{"type":"Point","coordinates":[13.35468,52.528233]}},{"id":"162","type":"Feature","properties":{"layer":0},"geometry":{"type":"Point","coordinates":[13.419668,52.483471]}},{"id":"163","type":"Feature","properties":{"layer":0},"geometry":{"type":"Point","coordinates":[13.462939,52.517068]}},{"id":"164","type":"Feature","properties":{"layer":0},"geometry":{"type":"Point","coordinates":[13.470688,52.535893]}},{"id":"165","type":"Feature","properties":{"layer":0},"geometry":{"type":"Point","coordinates":[13.425802,52.534149]}},{"id":"166","type":"Feature","properties":{"layer":0},"geometry":{"type":"Point","coordinates":[13.434497,52.501637]}},{"id":"167","type":"Feature","properties":{"layer":0},"geometry":{"type":"Point","coordinates":[13.370953,52.509287]}},{"id":"168","type":"Feature","properties":{"layer":0},"geometry":{"type":"Point","coordinates":[13.441463,52.494733]}},{"id":"169","type":"Feature","properties":{"layer":0},"geometry":{"type":"Point","coordinates":[13.366716,52.546989]}},{"id":"170","type":"Feature","properties":{"layer":0},"geometry":{"type":"Point","coordinates":[13.414201,52.487489]}},{"id":"171","type":"Feature","properties":{"layer":0},"geometry":{"type":"Point","coordinates":[13.334985,52.523094]}},{"id":"172","type":"Feature","properties":{"layer":0},"geometry":{"type":"Point","coordinates":[13.45885,52.5399]}},{"id":"173","type":"Feature","properties":{"layer":0},"geometry":{"type":"Point","coordinates":[13.469312,52.502577]}},{"id":"174","type":"Feature","properties":{"layer":0},"geometry":{"type":"Point","coordinates":[13.407189,52.493318]}},{"id":"175","type":"Feature","properties":{"layer":0},"geometry":{"type":"Point","coordinates":[13.475491,52.494749]}},{"id":"176","type":"Feature","properties":{"layer":0},"geometry":{"type":"Point","coordinates":[13.362862,52.516182]}},{"id":"177","type":"Feature","properties":{"layer":0},"geometry":{"type":"Point","coordinates":[13.383677,52.523612]}},{"id":"178","type":"Feature","properties":{"layer":0},"geometry":{"type":"Point","coordinates":[13.432288,52.521563]}},{"id":"179","type":"Feature","properties":{"layer":0},"geometry":{"type":"Point","coordinates":[13.394819,52.495022]}},{"id":"180","type":"Feature","properties":{"layer":0},"geometry":{"type":"Point","coordinates":[13.416398,52.538214]}},{"id":"181","type":"Feature","properties":{"layer":0},"geometry":{"type":"Point","coordinates":[13.446343,52.531636]}},{"id":"182","type":"Feature","properties":{"layer":0},"geometry":{"type":"Point","coordinates":[13.415661,52.496549]}},{"id":"183","type":"Feature","properties":{"layer":0},"geometry":{"type":"Point","coordinates":[13.363186,52.506609]}},{"id":"184","type":"Feature","properties":{"layer":0},"geometry":{"type":"Point","coordinates":[13.457938,52.496899]}},{"id":"185","type":"Feature","properties":{"layer":0},"geometry":{"type":"Point","coordinates":[13.398069,52.526227]}},{"id":"186","type":"Feature","properties":{"layer":0},"geometry":{"type":"Point","coordinates":[13.34203,52.539068]}},{"id":"187","type":"Feature","properties":{"layer":0},"geometry":{"type":"Point","coordinates":[13.39391,52.524521]}},{"id":"188","type":"Feature","properties":{"layer":0},"geometry":{"type":"Point","coordinates":[13.371278,52.514281]}},{"id":"189","type":"Feature","properties":{"layer":0},"geometry":{"type":"Point","coordinates":[13.429361,52.522859]}},{"id":"190","type":"Feature","properties":{"layer":0},"geometry":{"type":"Point","coordinates":[13.345603,52.546519]}},{"id":"191","type":"Feature","properties":{"layer":0},"geometry":{"type":"Point","coordinates":[13.416462,52.513187]}},{"id":"192","type":"Feature","properties":{"layer":0},"geometry":{"type":"Point","coordinates":[13.421981,52.508231]}},{"id":"193","type":"Feature","properties":{"layer":0},"geometry":{"type":"Point","coordinates":[13.354399,52.506358]}},{"id":"194","type":"Feature","properties":{"layer":0},"geometry":{"type":"Point","coordinates":[13.417802,52.529339]}},{"id":"195","type":"Feature","properties":{"layer":0},"geometry":{"type":"Point","coordinates":[13.411277,52.496603]}},{"id":"196","type":"Feature","properties":{"layer":0},"geometry":{"type":"Point","coordinates":[13.410455,52.509192]}},{"id":"197","type":"Feature","properties":{"layer":0},"geometry":{"type":"Point","coordinates":[13.403761,52.507764]}},{"id":"198","type":"Feature","properties":{"layer":0},"geometry":{"type":"Point","coordinates":[13.404501,52.512259]}},{"id":"199","type":"Feature","properties":{"layer":0},"geometry":{"type":"Point","coordinates":[13.377245,52.492425]}},{"id":"200","type":"Feature","properties":{"layer":0},"geometry":{"type":"Point","coordinates":[13.384855,52.516866]}},{"id":"201","type":"Feature","properties":{"layer":0},"geometry":{"type":"Point","coordinates":[13.377207,52.490798]}},{"id":"202","type":"Feature","properties":{"layer":0},"geometry":{"type":"Point","coordinates":[13.410642,52.532374]}},{"id":"203","type":"Feature","properties":{"layer":0},"geometry":{"type":"Point","coordinates":[13.410303,52.532112]}},{"id":"204","type":"Feature","properties":{"layer":0},"geometry":{"type":"Point","coordinates":[13.458641,52.491367]}},{"id":"205","type":"Feature","properties":{"layer":0},"geometry":{"type":"Point","coordinates":[13.40726,52.517505]}},{"id":"206","type":"Feature","properties":{"layer":0},"geometry":{"type":"Point","coordinates":[13.409172,52.494893]}},{"id":"207","type":"Feature","properties":{"layer":0},"geometry":{"type":"Point","coordinates":[13.343019,52.521904]}},{"id":"208","type":"Feature","properties":{"layer":0},"geometry":{"type":"Point","coordinates":[13.489833,52.487402]}},{"id":"209","type":"Feature","properties":{"layer":0},"geometry":{"type":"Point","coordinates":[13.340352,52.506859]}},{"id":"210","type":"Feature","properties":{"layer":0},"geometry":{"type":"Point","coordinates":[13.451733,52.499267]}},{"id":"211","type":"Feature","properties":{"layer":0},"geometry":{"type":"Point","coordinates":[13.398975,52.479476]}},{"id":"212","type":"Feature","properties":{"layer":0},"geometry":{"type":"Point","coordinates":[13.400502,52.517074]}},{"id":"213","type":"Feature","properties":{"layer":0},"geometry":{"type":"Point","coordinates":[13.377726,52.502346]}},{"id":"214","type":"Feature","properties":{"layer":0},"geometry":{"type":"Point","coordinates":[13.397259,52.527065]}},{"id":"215","type":"Feature","properties":{"layer":0},"geometry":{"type":"Point","coordinates":[13.48441,52.520479]}},{"id":"216","type":"Feature","properties":{"layer":0},"geometry":{"type":"Point","coordinates":[13.479647,52.482519]}},{"id":"217","type":"Feature","properties":{"layer":0},"geometry":{"type":"Point","coordinates":[13.395621,52.505458]}},{"id":"218","type":"Feature","properties":{"layer":0},"geometry":{"type":"Point","coordinates":[13.345306,52.534516]}},{"id":"219","type":"Feature","properties":{"layer":0},"geometry":{"type":"Point","coordinates":[13.454588,52.525771]}},{"id":"220","type":"Feature","properties":{"layer":0},"geometry":{"type":"Point","coordinates":[13.346072,52.514]}},{"id":"221","type":"Feature","properties":{"layer":0},"geometry":{"type":"Point","coordinates":[13.348979,52.478852]}},{"id":"222","type":"Feature","properties":{"layer":0},"geometry":{"type":"Point","coordinates":[13.47848,52.480424]}},{"id":"223","type":"Feature","properties":{"layer":0},"geometry":{"type":"Point","coordinates":[13.439194,52.480007]}},{"id":"224","type":"Feature","properties":{"layer":0},"geometry":{"type":"Point","coordinates":[13.411608,52.492387]}},{"id":"225","type":"Feature","properties":{"layer":0},"geometry":{"type":"Point","coordinates":[13.419164,52.490133]}},{"id":"226","type":"Feature","properties":{"layer":0},"geometry":{"type":"Point","coordinates":[13.456039,52.538183]}},{"id":"227","type":"Feature","properties":{"layer":0},"geometry":{"type":"Point","coordinates":[13.42969,52.482972]}},{"id":"228","type":"Feature","properties":{"layer":0},"geometry":{"type":"Point","coordinates":[13.463859,52.491361]}},{"id":"229","type":"Feature","properties":{"layer":0},"geometry":{"type":"Point","coordinates":[13.417832,52.485465]}},{"id":"230","type":"Feature","properties":{"layer":0},"geometry":{"type":"Point","coordinates":[13.362955,52.505122]}},{"id":"231","type":"Feature","properties":{"layer":0},"geometry":{"type":"Point","coordinates":[13.351611,52.517315]}},{"id":"232","type":"Feature","properties":{"layer":0},"geometry":{"type":"Point","coordinates":[13.364047,52.532104]}},{"id":"233","type":"Feature","properties":{"layer":0},"geometry":{"type":"Point","coordinates":[13.452699,52.51779]}},{"id":"234","type":"Feature","properties":{"layer":0},"geometry":{"type":"Point","coordinates":[13.431109,52.520906]}},{"id":"235","type":"Feature","properties":{"layer":0},"geometry":{"type":"Point","coordinates":[13.425336,52.513501]}},{"id":"236","type":"Feature","properties":{"layer":0},"geometry":{"type":"Point","coordinates":[13.342194,52.488844]}},{"id":"237","type":"Feature","properties":{"layer":0},"geometry":{"type":"Point","coordinates":[13.395059,52.534162]}},{"id":"238","type":"Feature","properties":{"layer":0},"geometry":{"type":"Point","coordinates":[13.370419,52.49451]}},{"id":"239","type":"Feature","properties":{"layer":0},"geometry":{"type":"Point","coordinates":[13.492028,52.548059]}},{"id":"240","type":"Feature","properties":{"layer":0},"geometry":{"type":"Point","coordinates":[13.39658,52.490544]}},{"id":"241","type":"Feature","properties":{"layer":0},"geometry":{"type":"Point","coordinates":[13.424984,52.536399]}},{"id":"242","type":"Feature","properties":{"layer":0},"geometry":{"type":"Point","coordinates":[13.371496,52.526156]}},{"id":"243","type":"Feature","properties":{"layer":0},"geometry":{"type":"Point","coordinates":[13.472648,52.503384]}},{"id":"244","type":"Feature","properties":{"layer":0},"geometry":{"type":"Point","coordinates":[13.337973,52.498387]}},{"id":"245","type":"Feature","properties":{"layer":0},"geometry":{"type":"Point","coordinates":[13.367054,52.518387]}},{"id":"246","type":"Feature","properties":{"layer":0},"geometry":{"type":"Point","coordinates":[13.493938,52.496843]}},{"id":"247","type":"Feature","properties":{"layer":0},"geometry":{"type":"Point","coordinates":[13.451918,52.533169]}},{"id":"248","type":"Feature","properties":{"layer":0},"geometry":{"type":"Point","coordinates":[13.412247,52.528261]}},{"id":"249","type":"Feature","properties":{"layer":0},"geometry":{"type":"Point","coordinates":[13.365061,52.518517]}},{"id":"250","type":"Feature","properties":{"layer":0},"geometry":{"type":"Point","coordinates":[13.409559,52.540105]}},{"id":"251","type":"Feature","properties":{"layer":0},"geometry":{"type":"Point","coordinates":[13.354037,52.536074]}},{"id":"252","type":"Feature","properties":{"layer":0},"geometry":{"type":"Point","coordinates":[13.450441,52.504839]}},{"id":"253","type":"Feature","properties":{"layer":0},"geometry":{"type":"Point","coordinates":[13.468874,52.501831]}},{"id":"254","type":"Feature","properties":{"layer":0},"geometry":{"type":"Point","coordinates":[13.373764,52.542733]}},{"id":"255","type":"Feature","properties":{"layer":0},"geometry":{"type":"Point","coordinates":[13.487781,52.476818]}},{"id":"256","type":"Feature","properties":{"layer":0},"geometry":{"type":"Point","coordinates":[13.367694,52.506843]}},{"id":"257","type":"Feature","properties":{"layer":0},"geometry":{"type":"Point","coordinates":[13.451601,52.52502]}},{"id":"258","type":"Feature","properties":{"layer":0},"geometry":{"type":"Point","coordinates":[13.372519,52.547281]}},{"id":"259","type":"Feature","properties":{"layer":0},"geometry":{"type":"Point","coordinates":[13.386668,52.500332]}},{"id":"260","type":"Feature","properties":{"layer":0},"geometry":{"type":"Point","coordinates":[13.478681,52.516894]}},{"id":"261","type":"Feature","properties":{"layer":0},"geometry":{"type":"Point","coordinates":[13.357249,52.549272]}},{"id":"262","type":"Feature","properties":{"layer":0},"geometry":{"type":"Point","coordinates":[13.332073,52.496533]}},{"id":"263","type":"Feature","properties":{"layer":0},"geometry":{"type":"Point","coordinates":[13.408728,52.518089]}},{"id":"264","type":"Feature","properties":{"layer":0},"geometry":{"type":"Point","coordinates":[13.480377,52.51193]}},{"id":"265","type":"Feature","properties":{"layer":0},"geometry":{"type":"Point","coordinates":[13.408783,52.525819]}},{"id":"266","type":"Feature","properties":{"layer":0},"geometry":{"type":"Point","coordinates":[13.418588,52.516613]}},{"id":"267","type":"Feature","properties":{"layer":0},"geometry":{"type":"Point","coordinates":[13.425141,52.532634]}},{"id":"268","type":"Feature","properties":{"layer":0},"geometry":{"type":"Point","coordinates":[13.476029,52.506279]}},{"id":"269","type":"Feature","properties":{"layer":0},"geometry":{"type":"Point","coordinates":[13.382242,52.516939]}},{"id":"270","type":"Feature","properties":{"layer":0},"geometry":{"type":"Point","coordinates":[13.346817,52.491306]}},{"id":"271","type":"Feature","properties":{"layer":0},"geometry":{"type":"Point","coordinates":[13.342869,52.487589]}},{"id":"272","type":"Feature","properties":{"layer":0},"geometry":{"type":"Point","coordinates":[13.487873,52.542552]}},{"id":"273","type":"Feature","properties":{"layer":0},"geometry":{"type":"Point","coordinates":[13.412286,52.538017]}},{"id":"274","type":"Feature","properties":{"layer":0},"geometry":{"type":"Point","coordinates":[13.465549,52.504239]}},{"id":"275","type":"Feature","properties":{"layer":0},"geometry":{"type":"Point","coordinates":[13.428922,52.522147]}},{"id":"276","type":"Feature","properties":{"layer":0},"geometry":{"type":"Point","coordinates":[13.35317,52.529902]}},{"id":"277","type":"Feature","properties":{"layer":0},"geometry":{"type":"Point","coordinates":[13.476158,52.536817]}},{"id":"278","type":"Feature","properties":{"layer":0},"geometry":{"type":"Point","coordinates":[13.373123,52.543267]}},{"id":"279","type":"Feature","properties":{"layer":0},"geometry":{"type":"Point","coordinates":[13.350387,52.483879]}},{"id":"280","type":"Feature","properties":{"layer":0},"geometry":{"type":"Point","coordinates":[13.417495,52.490432]}},{"id":"281","type":"Feature","properties":{"layer":0},"geometry":{"type":"Point","coordinates":[13.357361,52.502683]}},{"id":"282","type":"Feature","properties":{"layer":0},"geometry":{"type":"Point","coordinates":[13.393482,52.526652]}},{"id":"283","type":"Feature","properties":{"layer":0},"geometry":{"type":"Point","coordinates":[13.4859,52.480499]}},{"id":"284","type":"Feature","properties":{"layer":0},"geometry":{"type":"Point","coordinates":[13.366035,52.5236]}},{"id":"285","type":"Feature","properties":{"layer":0},"geometry":{"type":"Point","coordinates":[13.399379,52.537047]}},{"id":"286","type":"Feature","properties":{"layer":0},"geometry":{"type":"Point","coordinates":[13.42488,52.5168]}},{"id":"287","type":"Feature","properties":{"layer":0},"geometry":{"type":"Point","coordinates":[13.359857,52.536015]}},{"id":"288","type":"Feature","properties":{"layer":0},"geometry":{"type":"Point","coordinates":[13.387036,52.502559]}},{"id":"289","type":"Feature","properties":{"layer":0},"geometry":{"type":"Point","coordinates":[13.458643,52.485958]}},{"id":"290","type":"Feature","properties":{"layer":0},"geometry":{"type":"Point","coordinates":[13.340732,52.493007]}},{"id":"291","type":"Feature","properties":{"layer":0},"geometry":{"type":"Point","coordinates":[13.461832,52.493982]}},{"id":"292","type":"Feature","properties":{"layer":0},"geometry":{"type":"Point","coordinates":[13.464555,52.516552]}},{"id":"293","type":"Feature","properties":{"layer":0},"geometry":{"type":"Point","coordinates":[13.414315,52.507531]}},{"id":"294","type":"Feature","properties":{"layer":0},"geometry":{"type":"Point","coordinates":[13.367324,52.534418]}},{"id":"295","type":"Feature","properties":{"layer":0},"geometry":{"type":"Point","coordinates":[13.353348,52.521732]}},{"id":"296","type":"Feature","properties":{"layer":0},"geometry":{"type":"Point","coordinates":[13.33289,52.525591]}},{"id":"297","type":"Feature","properties":{"layer":0},"geometry":{"type":"Point","coordinates":[13.449066,52.497355]}},{"id":"298","type":"Feature","properties":{"layer":0},"geometry":{"type":"Point","coordinates":[13.40724,52.507912]}},{"id":"299","type":"Feature","properties":{"layer":0},"geometry":{"type":"Point","coordinates":[13.386647,52.526016]}},{"id":"300","type":"Feature","properties":{"layer":0},"geometry":{"type":"Point","coordinates":[13.370463,52.488203]}},{"id":"301","type":"Feature","properties":{"layer":0},"geometry":{"type":"Point","coordinates":[13.411408,52.519683]}},{"id":"302","type":"Feature","properties":{"layer":0},"geometry":{"type":"Point","coordinates":[13.409718,52.513151]}},{"id":"303","type":"Feature","properties":{"layer":0},"geometry":{"type":"Point","coordinates":[13.476672,52.50557]}},{"id":"304","type":"Feature","properties":{"layer":0},"geometry":{"type":"Point","coordinates":[13.400064,52.484911]}},{"id":"305","type":"Feature","properties":{"layer":0},"geometry":{"type":"Point","coordinates":[13.378908,52.517525]}},{"id":"306","type":"Feature","properties":{"layer":0},"geometry":{"type":"Point","coordinates":[13.410512,52.526913]}},{"id":"307","type":"Feature","properties":{"layer":0},"geometry":{"type":"Point","coordinates":[13.376735,52.533181]}},{"id":"308","type":"Feature","properties":{"layer":0},"geometry":{"type":"Point","coordinates":[13.379809,52.503266]}},{"id":"309","type":"Feature","properties":{"layer":0},"geometry":{"type":"Point","coordinates":[13.447654,52.520943]}},{"id":"310","type":"Feature","properties":{"layer":0},"geometry":{"type":"Point","coordinates":[13.486347,52.513628]}},{"id":"311","type":"Feature","properties":{"layer":0},"geometry":{"type":"Point","coordinates":[13.449626,52.542469]}},{"id":"312","type":"Feature","properties":{"layer":0},"geometry":{"type":"Point","coordinates":[13.42605,52.493666]}},{"id":"313","type":"Feature","properties":{"layer":0},"geometry":{"type":"Point","coordinates":[13.423504,52.499171]}},{"id":"314","type":"Feature","properties":{"layer":0},"geometry":{"type":"Point","coordinates":[13.407445,52.495918]}},{"id":"315","type":"Feature","properties":{"layer":0},"geometry":{"type":"Point","coordinates":[13.439209,52.532798]}},{"id":"316","type":"Feature","properties":{"layer":0},"geometry":{"type":"Point","coordinates":[13.438952,52.519886]}},{"id":"317","type":"Feature","properties":{"layer":0},"geometry":{"type":"Point","coordinates":[13.442301,52.496975]}},{"id":"318","type":"Feature","properties":{"layer":0},"geometry":{"type":"Point","coordinates":[13.394417,52.526898]}},{"id":"319","type":"Feature","properties":{"layer":0},"geometry":{"type":"Point","coordinates":[13.35634,52.544281]}},{"id":"320","type":"Feature","properties":{"layer":0},"geometry":{"type":"Point","coordinates":[13.419716,52.477777]}},{"id":"321","type":"Feature","properties":{"layer":0},"geometry":{"type":"Point","coordinates":[13.342229,52.520477]}},{"id":"322","type":"Feature","properties":{"layer":0},"geometry":{"type":"Point","coordinates":[13.485273,52.49462]}},{"id":"323","type":"Feature","properties":{"layer":0},"geometry":{"type":"Point","coordinates":[13.488613,52.509868]}},{"id":"324","type":"Feature","properties":{"layer":0},"geometry":{"type":"Point","coordinates":[13.450919,52.538376]}},{"id":"325","type":"Feature","properties":{"layer":0},"geometry":{"type":"Point","coordinates":[13.360141,52.494613]}},{"id":"326","type":"Feature","properties":{"layer":0},"geometry":{"type":"Point","coordinates":[13.337633,52.488449]}},{"id":"327","type":"Feature","properties":{"layer":0},"geometry":{"type":"Point","coordinates":[13.381734,52.479226]}},{"id":"328","type":"Feature","properties":{"layer":0},"geometry":{"type":"Point","coordinates":[13.461264,52.534454]}},{"id":"329","type":"Feature","properties":{"layer":0},"geometry":{"type":"Point","coordinates":[13.426594,52.479527]}},{"id":"330","type":"Feature","properties":{"layer":0},"geometry":{"type":"Point","coordinates":[13.403704,52.539708]}},{"id":"331","type":"Feature","properties":{"layer":0},"geometry":{"type":"Point","coordinates":[13.444983,52.519824]}},{"id":"332","type":"Feature","properties":{"layer":0},"geometry":{"type":"Point","coordinates":[13.346399,52.527555]}},{"id":"333","type":"Feature","properties":{"layer":0},"geometry":{"type":"Point","coordinates":[13.491467,52.485162]}},{"id":"334","type":"Feature","properties":{"layer":0},"geometry":{"type":"Point","coordinates":[13.466962,52.540811]}},{"id":"335","type":"Feature","properties":{"layer":0},"geometry":{"type":"Point","coordinates":[13.408955,52.485412]}},{"id":"336","type":"Feature","properties":{"layer":0},"geometry":{"type":"Point","coordinates":[13.365825,52.501947]}},{"id":"337","type":"Feature","properties":{"layer":0},"geometry":{"type":"Point","coordinates":[13.382114,52.479269]}},{"id":"338","type":"Feature","properties":{"layer":0},"geometry":{"type":"Point","coordinates":[13.34982,52.495752]}},{"id":"339","type":"Feature","properties":{"layer":0},"geometry":{"type":"Point","coordinates":[13.421543,52.506502]}},{"id":"340","type":"Feature","properties":{"layer":0},"geometry":{"type":"Point","coordinates":[13.417174,52.505966]}},{"id":"341","type":"Feature","properties":{"layer":0},"geometry":{"type":"Point","coordinates":[13.376831,52.493249]}},{"id":"342","type":"Feature","properties":{"layer":0},"geometry":{"type":"Point","coordinates":[13.394348,52.527525]}},{"id":"343","type":"Feature","properties":{"layer":0},"geometry":{"type":"Point","coordinates":[13.40339,52.485188]}},{"id":"344","type":"Feature","properties":{"layer":0},"geometry":{"type":"Point","coordinates":[13.414648,52.508525]}},{"id":"345","type":"Feature","properties":{"layer":0},"geometry":{"type":"Point","coordinates":[13.45226,52.478579]}},{"id":"346","type":"Feature","properties":{"layer":0},"geometry":{"type":"Point","coordinates":[13.412819,52.518102]}},{"id":"347","type":"Feature","properties":{"layer":0},"geometry":{"type":"Point","coordinates":[13.465301,52.509916]}},{"id":"348","type":"Feature","properties":{"layer":0},"geometry":{"type":"Point","coordinates":[13.468879,52.530439]}},{"id":"349","type":"Feature","properties":{"layer":0},"geometry":{"type":"Point","coordinates":[13.412216,52.524802]}},{"id":"350","type":"Feature","properties":{"layer":0},"geometry":{"type":"Point","coordinates":[13.419015,52.487607]}},{"id":"351","type":"Feature","properties":{"layer":0},"geometry":{"type":"Point","coordinates":[13.48705,52.532626]}},{"id":"352","type":"Feature","properties":{"layer":0},"geometry":{"type":"Point","coordinates":[13.402702,52.523907]}},{"id":"353","type":"Feature","properties":{"layer":0},"geometry":{"type":"Point","coordinates":[13.422015,52.476222]}},{"id":"354","type":"Feature","properties":{"layer":0},"geometry":{"type":"Point","coordinates":[13.448745,52.49759]}},{"id":"355","type":"Feature","properties":{"layer":0},"geometry":{"type":"Point","coordinates":[13.399551,52.477804]}},{"id":"356","type":"Feature","properties":{"layer":0},"geometry":{"type":"Point","coordinates":[13.345308,52.540298]}},{"id":"357","type":"Feature","properties":{"layer":0},"geometry":{"type":"Point","coordinates":[13.352098,52.477442]}},{"id":"358","type":"Feature","properties":{"layer":0},"geometry":{"type":"Point","coordinates":[13.471526,52.530649]}},{"id":"359","type":"Feature","properties":{"layer":0},"geometry":{"type":"Point","coordinates":[13.363254,52.52136]}},{"id":"360","type":"Feature","properties":{"layer":0},"geometry":{"type":"Point","coordinates":[13.454361,52.4995]}},{"id":"361","type":"Feature","properties":{"layer":0},"geometry":{"type":"Point","coordinates":[13.392764,52.506668]}},{"id":"362","type":"Feature","properties":{"layer":0},"geometry":{"type":"Point","coordinates":[13.407098,52.498787]}},{"id":"363","type":"Feature","properties":{"layer":0},"geometry":{"type":"Point","coordinates":[13.409967,52.520686]}},{"id":"364","type":"Feature","properties":{"layer":0},"geometry":{"type":"Point","coordinates":[13.342965,52.535931]}},{"id":"365","type":"Feature","properties":{"layer":0},"geometry":{"type":"Point","coordinates":[13.407147,52.488318]}},{"id":"366","type":"Feature","properties":{"layer":0},"geometry":{"type":"Point","coordinates":[13.47001,52.491141]}},{"id":"367","type":"Feature","properties":{"layer":0},"geometry":{"type":"Point","coordinates":[13.338341,52.505914]}},{"id":"368","type":"Feature","properties":{"layer":0},"geometry":{"type":"Point","coordinates":[13.398122,52.528558]}},{"id":"369","type":"Feature","properties":{"layer":0},"geometry":{"type":"Point","coordinates":[13.357283,52.493385]}},{"id":"370","type":"Feature","properties":{"layer":0},"geometry":{"type":"Point","coordinates":[13.363964,52.522555]}},{"id":"371","type":"Feature","properties":{"layer":0},"geometry":{"type":"Point","coordinates":[13.391117,52.522703]}},{"id":"372","type":"Feature","properties":{"layer":0},"geometry":{"type":"Point","coordinates":[13.419076,52.498188]}},{"id":"373","type":"Feature","properties":{"layer":0},"geometry":{"type":"Point","coordinates":[13.436293,52.545543]}},{"id":"374","type":"Feature","properties":{"layer":0},"geometry":{"type":"Point","coordinates":[13.476671,52.484822]}},{"id":"375","type":"Feature","properties":{"layer":0},"geometry":{"type":"Point","coordinates":[13.419762,52.533273]}},{"id":"376","type":"Feature","properties":{"layer":0},"geometry":{"type":"Point","coordinates":[13.408891,52.502331]}},{"id":"377","type":"Feature","properties":{"layer":0},"geometry":{"type":"Point","coordinates":[13.371372,52.505457]}},{"id":"378","type":"Feature","properties":{"layer":0},"geometry":{"type":"Point","coordinates":[13.482064,52.530351]}},{"id":"379","type":"Feature","properties":{"layer":0},"geometry":{"type":"Point","coordinates":[13.416824,52.536345]}},{"id":"380","type":"Feature","properties":{"layer":0},"geometry":{"type":"Point","coordinates":[13.415074,52.493102]}},{"id":"381","type":"Feature","properties":{"layer":0},"geometry":{"type":"Point","coordinates":[13.399105,52.515704]}},{"id":"382","type":"Feature","properties":{"layer":0},"geometry":{"type":"Point","coordinates":[13.390296,52.540235]}},{"id":"383","type":"Feature","properties":{"layer":0},"geometry":{"type":"Point","coordinates":[13.345141,52.520722]}},{"id":"384","type":"Feature","properties":{"layer":0},"geometry":{"type":"Point","coordinates":[13.345344,52.494002]}},{"id":"385","type":"Feature","properties":{"layer":0},"geometry":{"type":"Point","coordinates":[13.45965,52.504603]}},{"id":"386","type":"Feature","properties":{"layer":0},"geometry":{"type":"Point","coordinates":[13.366344,52.523316]}},{"id":"387","type":"Feature","properties":{"layer":0},"geometry":{"type":"Point","coordinates":[13.475614,52.526169]}},{"id":"388","type":"Feature","properties":{"layer":0},"geometry":{"type":"Point","coordinates":[13.490001,52.491187]}},{"id":"389","type":"Feature","properties":{"layer":0},"geometry":{"type":"Point","coordinates":[13.36144,52.522968]}},{"id":"390","type":"Feature","properties":{"layer":0},"geometry":{"type":"Point","coordinates":[13.382371,52.516512]}},{"id":"391","type":"Feature","properties":{"layer":0},"geometry":{"type":"Point","coordinates":[13.38008,52.537616]}},{"id":"392","type":"Feature","properties":{"layer":0},"geometry":{"type":"Point","coordinates":[13.3388,52.488348]}},{"id":"393","type":"Feature","properties":{"layer":0},"geometry":{"type":"Point","coordinates":[13.352721,52.544127]}},{"id":"394","type":"Feature","properties":{"layer":0},"geometry":{"type":"Point","coordinates":[13.461476,52.511512]}},{"id":"395","type":"Feature","properties":{"layer":0},"geometry":{"type":"Point","coordinates":[13.452236,52.537971]}},{"id":"396","type":"Feature","properties":{"layer":0},"geometry":{"type":"Point","coordinates":[13.446136,52.53837]}},{"id":"397","type":"Feature","properties":{"layer":0},"geometry":{"type":"Point","coordinates":[13.419054,52.497205]}},{"id":"398","type":"Feature","properties":{"layer":0},"geometry":{"type":"Point","coordinates":[13.416266,52.528798]}},{"id":"399","type":"Feature","properties":{"layer":0},"geometry":{"type":"Point","coordinates":[13.339127,52.487977]}}]}