{"type":"FeatureCollection","features":[{"id":"0","type":"Feature","properties":{},"geometry":{"type":"Polygon","coordinates":[[[13.379553,52.515322],[13.327103,52.508135],[13.327103,52.550054],[13.379549,52.550054],[13.379553,52.515322]]]}},{"id":"1","type":"Feature","properties":{},"geometry":{"type":"Polygon","coordinates":[[[13.384304,52.509102],[13.43709,52.519955],[13.44078,52.514119],[13.439013,52.476089],[13.387298,52.476089],[13.384304,52.509102]]]}},{"id":"2","type":"Feature","properties":{},"geometry":{"type":"Polygon","coordinates":[[[13.44078,52.514119],[13.496017,52.512947],[13.496017,52.476089],[13.439013,52.476089],[13.44078,52.514119]]]}},{"id":"3","type":"Feature","properties":{},"geometry":{"type":"Polygon","coordinates":[[[13.379553,52.515322],[13.384304,52.509102],[13.387298,52.476089],[13.327103,52.476089],[13.327103,52.508135],[13.379553,52.515322]]]}},{"id":"4","type":"Feature","properties":{},"geometry":{"type":"Polygon","coordinates":[[[13.43709,52.519955],[13.384304,52.509102],[13.379553,52.515322],[13.379549,52.550054],[13.436779,52.550054],[13.43709,52.519955]]]}},{"id":"5","type":"Feature","properties":{},"geometry":{"type":"Polygon","coordinates":[[[13.44078,52.514119],[13.43709,52.519955],[13.436779,52.550054],[13.496017,52.550054],[13.496017,52.512947],[13.44078,52.514119]]]}}]}